{
    "type": "FeatureCollection",
    "generator": "overpass-ide",
    "copyright": "The data included in this document is from www.openstreetmap.org. The data is made available under ODbL.",
    "timestamp": "2023-03-05T17:34:53Z",
    "features": [
      {
        "type": "Feature",
        "properties": {
          "@id": "node/354110144",
          "addr:city": "Evanston",
          "addr:housenumber": "2417",
          "addr:postcode": "60201",
          "addr:state": "IL",
          "addr:street": "Prairie Avenue",
          "amenity": "school",
          "ele": "186",
          "gnis:county_id": "031",
          "gnis:created": "09/30/1999",
          "gnis:feature_id": "409931",
          "gnis:state_id": "17",
          "name": "Haven Middle School",
          "operator": "Evanston/Skokie School District 65",
          "operator:short": "D65",
          "operator:type": "public",
          "operator:wikidata": "Q16992798",
          "operator:wikipedia": "en:Evanston/Skokie School District 65"
        },
        "geometry": {
          "type": "Point",
          "coordinates": [
            -87.6977954,
            42.0616007
          ]
        },
        "id": "node/354110144"
      },
      {
        "type": "Feature",
        "properties": {
          "@id": "node/354236842",
          "addr:city": "Evanston",
          "addr:housenumber": "2300",
          "addr:postcode": "60201",
          "addr:state": "IL",
          "addr:street": "Green Bay Road",
          "amenity": "school",
          "ele": "183",
          "gnis:county_id": "031",
          "gnis:created": "04/16/1999",
          "gnis:feature_id": "1830947",
          "gnis:state_id": "17",
          "name": "Kingsley Elementary School",
          "operator": "Evanston/Skokie School District 65",
          "operator:short": "D65",
          "operator:type": "public",
          "operator:wikidata": "Q16992798",
          "operator:wikipedia": "en:Evanston/Skokie School District 65"
        },
        "geometry": {
          "type": "Point",
          "coordinates": [
            -87.6961677,
            42.0600949
          ]
        },
        "id": "node/354236842"
      },
      {
        "type": "Feature",
        "properties": {
          "@id": "node/354265239",
          "addr:city": "Evanston",
          "addr:housenumber": "1801",
          "addr:postcode": "60201",
          "addr:state": "IL",
          "addr:street": "Emerson Street",
          "amenity": "place_of_worship",
          "denomination": "baptist",
          "ele": "182",
          "gnis:county_id": "031",
          "gnis:created": "05/08/2000",
          "gnis:feature_id": "1866815",
          "gnis:state_id": "17",
          "name": "Springfield Baptist Church",
          "religion": "christian"
        },
        "geometry": {
          "type": "Point",
          "coordinates": [
            -87.6976405,
            42.0524032
          ]
        },
        "id": "node/354265239"
      },
      {
        "type": "Feature",
        "properties": {
          "@id": "node/354265501",
          "addr:city": "Evanston",
          "addr:housenumber": "1812",
          "addr:postcode": "60201",
          "addr:state": "IL",
          "addr:street": "Dodge Avenue",
          "amenity": "place_of_worship",
          "denomination": "apostolic",
          "ele": "182",
          "gnis:county_id": "031",
          "gnis:created": "05/08/2000",
          "gnis:feature_id": "1866859",
          "gnis:state_id": "17",
          "name": "Apostolic Faith Church",
          "religion": "christian"
        },
        "geometry": {
          "type": "Point",
          "coordinates": [
            -87.6992287,
            42.0507527
          ]
        },
        "id": "node/354265501"
      },
      {
        "type": "Feature",
        "properties": {
          "@id": "node/354276670",
          "amenity": "place_of_worship",
          "denomination": "methodist",
          "ele": "183",
          "gnis:county_id": "031",
          "gnis:created": "11/27/2006",
          "gnis:feature_id": "2099440",
          "gnis:state_id": "17",
          "name": "Bethel African Methodist Episcopal Church",
          "religion": "christian"
        },
        "geometry": {
          "type": "Point",
          "coordinates": [
            -87.6975,
            42.0491667
          ]
        },
        "id": "node/354276670"
      },
      {
        "type": "Feature",
        "properties": {
          "@id": "node/354276682",
          "amenity": "place_of_worship",
          "ele": "183",
          "gnis:county_id": "031",
          "gnis:created": "11/27/2006",
          "gnis:feature_id": "2099438",
          "gnis:state_id": "17",
          "name": "Gospel Chapel Church of Evanston",
          "religion": "christian"
        },
        "geometry": {
          "type": "Point",
          "coordinates": [
            -87.6977778,
            42.0483333
          ]
        },
        "id": "node/354276682"
      },
      {
        "type": "Feature",
        "properties": {
          "@id": "node/354276692",
          "amenity": "place_of_worship",
          "ele": "181",
          "gnis:county_id": "031",
          "gnis:created": "11/27/2006",
          "gnis:feature_id": "2099435",
          "gnis:state_id": "17",
          "name": "Evanston Church of Christ",
          "religion": "christian"
        },
        "geometry": {
          "type": "Point",
          "coordinates": [
            -87.7080735,
            42.0412898
          ]
        },
        "id": "node/354276692"
      },
      {
        "type": "Feature",
        "properties": {
          "@id": "node/354276714",
          "amenity": "place_of_worship",
          "ele": "184",
          "gnis:county_id": "031",
          "gnis:created": "11/27/2006",
          "gnis:feature_id": "2099429",
          "gnis:state_id": "17",
          "name": "Holy Bethel Fire Baptized Holiness Church",
          "religion": "christian"
        },
        "geometry": {
          "type": "Point",
          "coordinates": [
            -87.695,
            42.0291667
          ]
        },
        "id": "node/354276714"
      },
      {
        "type": "Feature",
        "properties": {
          "@id": "node/354277978",
          "amenity": "place_of_worship",
          "ele": "183",
          "gnis:county_id": "031",
          "gnis:created": "11/27/2006",
          "gnis:feature_id": "2099422",
          "gnis:state_id": "17",
          "name": "Evanston Mennonite Church",
          "religion": "christian"
        },
        "geometry": {
          "type": "Point",
          "coordinates": [
            -87.6808333,
            42.02
          ]
        },
        "id": "node/354277978"
      },
      {
        "type": "Feature",
        "properties": {
          "@id": "node/357473442",
          "amenity": "place_of_worship",
          "ele": "221",
          "gnis:county_id": "061",
          "gnis:created": "05/01/1992",
          "gnis:feature_id": "1070003",
          "gnis:state_id": "39",
          "name": "Bible Deliverance Church",
          "religion": "christian"
        },
        "geometry": {
          "type": "Point",
          "coordinates": [
            -84.4625027,
            39.1319116
          ]
        },
        "id": "node/357473442"
      },
      {
        "type": "Feature",
        "properties": {
          "@id": "node/357531694",
          "amenity": "school",
          "ele": "225",
          "gnis:county_id": "061",
          "gnis:created": "06/21/2006",
          "gnis:feature_id": "2089770",
          "gnis:state_id": "39",
          "name": "Alliance Academy of Cincinnati",
          "operator": "National Heritage Academies",
          "operator:wikidata": "Q6973040",
          "website": "https://www.nhaschools.com/schools/alliance/"
        },
        "geometry": {
          "type": "Point",
          "coordinates": [
            -84.470074,
            39.1419641
          ]
        },
        "id": "node/357531694"
      },
      {
        "type": "Feature",
        "properties": {
          "@id": "node/368067972",
          "addr:state": "IL",
          "amenity": "library",
          "ele": "187",
          "gnis:county_name": "Cook",
          "gnis:feature_id": "1866871",
          "gnis:import_uuid": "57871b70-0100-4405-bb30-88b2e001a944",
          "gnis:reviewed": "no",
          "name": "Bruce Gordon Memorial Library",
          "operator:type": "religious",
          "source": "USGS Geonames"
        },
        "geometry": {
          "type": "Point",
          "coordinates": [
            -87.6892015,
            42.040948
          ]
        },
        "id": "node/368067972"
      },
      {
        "type": "Feature",
        "properties": {
          "@id": "node/424254948",
          "addr:city": "Evanston",
          "addr:housenumber": "101",
          "addr:postcode": "60202",
          "addr:state": "IL",
          "addr:street": "Ridge Avenue",
          "amenity": "fuel",
          "brand": "Shell",
          "brand:wikidata": "Q110716465",
          "brand:wikipedia": "en:Shell plc",
          "name": "Shell",
          "self_service": "yes"
        },
        "geometry": {
          "type": "Point",
          "coordinates": [
            -87.6842848,
            42.0196499
          ]
        },
        "id": "node/424254948"
      },
      {
        "type": "Feature",
        "properties": {
          "@id": "node/534043814",
          "addr:city": "Evanston",
          "addr:housenumber": "1520",
          "addr:postcode": "60201",
          "addr:street": "Sherman Avenue",
          "addr:street:name": "Sherman",
          "addr:street:type": "Avenue",
          "amenity": "restaurant",
          "name": "Bar Louie",
          "outdoor_seating": "yes",
          "phone": "847-733-8300",
          "website": "http://barlouieamerica.com/"
        },
        "geometry": {
          "type": "Point",
          "coordinates": [
            -87.6821167,
            42.0453401
          ]
        },
        "id": "node/534043814"
      },
      {
        "type": "Feature",
        "properties": {
          "@id": "node/534043821",
          "addr:city": "Evanston",
          "addr:housenumber": "1615",
          "addr:postcode": "60201",
          "addr:state": "IL",
          "addr:street": "Chicago Avenue",
          "addr:street:name": "Chicago",
          "addr:street:type": "Avenue",
          "amenity": "restaurant",
          "cuisine": "tapas;spanish",
          "name": "Tapas Barcelona",
          "phone": "+1-847-866-9900"
        },
        "geometry": {
          "type": "Point",
          "coordinates": [
            -87.6791923,
            42.0466409
          ]
        },
        "id": "node/534043821"
      },
      {
        "type": "Feature",
        "properties": {
          "@id": "node/534043827",
          "addr:city": "Evanston",
          "addr:housenumber": "1711",
          "addr:postcode": "60201",
          "addr:state": "IL",
          "addr:street": "Sherman Avenue",
          "addr:street:name": "Sherman",
          "addr:street:type": "Avenue",
          "amenity": "pharmacy",
          "brand": "CVS Pharmacy",
          "brand:wikidata": "Q2078880",
          "brand:wikipedia": "en:CVS Pharmacy",
          "dispensing": "yes",
          "drive_through": "no",
          "healthcare": "pharmacy",
          "name": "CVS Pharmacy",
          "short_name": "CVS"
        },
        "geometry": {
          "type": "Point",
          "coordinates": [
            -87.6815653,
            42.0489605
          ]
        },
        "id": "node/534043827"
      },
      {
        "type": "Feature",
        "properties": {
          "@id": "node/534043833",
          "addr:city": "Evanston",
          "addr:housenumber": "630",
          "addr:postcode": "60201",
          "addr:state": "IL",
          "addr:street": "Davis Street",
          "amenity": "fast_food",
          "brand": "Potbelly",
          "brand:wikidata": "Q7234777",
          "brand:wikipedia": "en:Potbelly Sandwich Shop",
          "cuisine": "sandwich",
          "name": "Potbelly",
          "official_name": "Potbelly Sandwich Works",
          "takeaway": "yes"
        },
        "geometry": {
          "type": "Point",
          "coordinates": [
            -87.6814395,
            42.0463329
          ]
        },
        "id": "node/534043833"
      },
      {
        "type": "Feature",
        "properties": {
          "@id": "node/534043837",
          "addr:city": "Evanston",
          "addr:housenumber": "1596",
          "addr:postcode": "60201",
          "addr:street": "Sherman Avenue",
          "addr:street:name": "Sherman",
          "addr:street:type": "Avenue",
          "amenity": "restaurant",
          "brand": "Freshii",
          "brand:wikidata": "Q5503051",
          "brand:wikipedia": "en:Freshii",
          "cuisine": "salad",
          "name": "Freshii"
        },
        "geometry": {
          "type": "Point",
          "coordinates": [
            -87.6821037,
            42.0466909
          ]
        },
        "id": "node/534043837"
      },
      {
        "type": "Feature",
        "properties": {
          "@id": "node/534043842",
          "addr:city": "Evanston",
          "addr:housenumber": "812",
          "addr:postcode": "60201",
          "addr:street": "Clark Street",
          "addr:street:name": "Clark",
          "addr:street:type": "Street",
          "amenity": "restaurant",
          "name": "Buffalo Joe's",
          "phone": "847-328-5525"
        },
        "geometry": {
          "type": "Point",
          "coordinates": [
            -87.6825049,
            42.0498334
          ]
        },
        "id": "node/534043842"
      },
      {
        "type": "Feature",
        "properties": {
          "@id": "node/534043845",
          "addr:city": "Evanston",
          "addr:housenumber": "1700",
          "addr:postcode": "60201",
          "addr:street": "Sherman Avenue",
          "addr:street:name": "Sherman",
          "addr:street:type": "Avenue",
          "amenity": "fast_food",
          "brand": "Panera Bread",
          "brand:wikidata": "Q7130852",
          "brand:wikipedia": "en:Panera Bread",
          "cuisine": "sandwich;bakery",
          "name": "Panera Bread",
          "short_name": "Panera",
          "takeaway": "yes"
        },
        "geometry": {
          "type": "Point",
          "coordinates": [
            -87.682109,
            42.0486053
          ]
        },
        "id": "node/534043845"
      },
      {
        "type": "Feature",
        "properties": {
          "@id": "node/534043849",
          "addr:city": "Evanston",
          "addr:housenumber": "1715",
          "addr:postcode": "60201",
          "addr:state": "IL",
          "addr:street": "Maple Avenue",
          "addr:street:name": "Maple",
          "addr:street:type": "Avenue",
          "amenity": "cinema",
          "brand": "Century Theatres",
          "brand:wikidata": "Q2946307",
          "brand:wikipedia": "en:Century Theatres",
          "name": "Century 12 Evanston/Century CineArts 6",
          "phone": "847-491-9751",
          "screen": "18",
          "short_name": "Century",
          "website": "https://www.cinemark.com/illinois/century-12-evanston-cinearts-6-and-xd",
          "wikidata": "Q42540435"
        },
        "geometry": {
          "type": "Point",
          "coordinates": [
            -87.6843865,
            42.0489741
          ]
        },
        "id": "node/534043849"
      },
      {
        "type": "Feature",
        "properties": {
          "@id": "node/534043851",
          "addr:city": "Evanston",
          "addr:housenumber": "707",
          "addr:postcode": "60201",
          "addr:state": "IL",
          "addr:street": "Church Street",
          "addr:street:name": "Church",
          "addr:street:type": "Street",
          "amenity": "restaurant",
          "cuisine": "asian",
          "name": "Flat Top Grill",
          "opening_hours": "Mo-Th 11:00-21:30; Fr 11:00-22:30; Sa 10:30-22:30; Su 10:30-21:00",
          "outdoor_seating": "yes",
          "phone": "847-570-0100",
          "website": "http://flattopgrill.com/"
        },
        "geometry": {
          "type": "Point",
          "coordinates": [
            -87.6811213,
            42.048593
          ]
        },
        "id": "node/534043851"
      },
      {
        "type": "Feature",
        "properties": {
          "@id": "node/534043854",
          "addr:city": "Evanston",
          "addr:housenumber": "709",
          "addr:postcode": "60201",
          "addr:state": "IL",
          "addr:street": "Church Street",
          "addr:street:name": "Church",
          "addr:street:type": "Street",
          "amenity": "fast_food",
          "brand": "Chipotle",
          "brand:wikidata": "Q465751",
          "brand:wikipedia": "en:Chipotle Mexican Grill",
          "cuisine": "mexican",
          "name": "Chipotle",
          "official_name": "Chipotle Mexican Grill",
          "opening_hours": "11:00-22:00",
          "takeaway": "yes"
        },
        "geometry": {
          "type": "Point",
          "coordinates": [
            -87.6812146,
            42.0485917
          ]
        },
        "id": "node/534043854"
      },
      {
        "type": "Feature",
        "properties": {
          "@id": "node/534071411",
          "addr:city": "Evanston",
          "addr:housenumber": "1850",
          "addr:postcode": "60201",
          "addr:state": "IL",
          "addr:street": "Sherman Avenue",
          "amenity": "restaurant",
          "brand": "Lou Malnati's Pizzeria",
          "brand:wikidata": "Q6685628",
          "brand:wikipedia": "en:Lou Malnati's Pizzeria",
          "cuisine": "pizza",
          "name": "Lou Malnati's Pizzeria",
          "opening_hours": "Su-Th 11:00-22:00; Fr-Sa 11:00-23:00",
          "phone": "8473285400",
          "website": "https://www.loumalnatis.com/evanston"
        },
        "geometry": {
          "type": "Point",
          "coordinates": [
            -87.6820257,
            42.0514152
          ]
        },
        "id": "node/534071411"
      },
      {
        "type": "Feature",
        "properties": {
          "@id": "node/534071713",
          "alt_name": "Jamba Juice",
          "amenity": "fast_food",
          "brand": "Jamba",
          "brand:wikidata": "Q3088784",
          "brand:wikipedia": "en:Jamba Juice",
          "cuisine": "juice",
          "name": "Jamba",
          "takeaway": "yes"
        },
        "geometry": {
          "type": "Point",
          "coordinates": [
            -87.6812727,
            42.0464948
          ]
        },
        "id": "node/534071713"
      },
      {
        "type": "Feature",
        "properties": {
          "@id": "node/534071714",
          "addr:city": "Evanston",
          "addr:housenumber": "804",
          "addr:postcode": "60201",
          "addr:street": "Davis Street",
          "addr:street:name": "Davis",
          "addr:street:type": "Street",
          "amenity": "restaurant",
          "cuisine": "asian",
          "name": "Lulu's"
        },
        "geometry": {
          "type": "Point",
          "coordinates": [
            -87.6822899,
            42.0467577
          ]
        },
        "id": "node/534071714"
      },
      {
        "type": "Feature",
        "properties": {
          "@id": "node/534071716",
          "addr:city": "Evanston",
          "addr:housenumber": "624",
          "addr:postcode": "60201",
          "addr:street": "Davis Street",
          "addr:street:name": "Davis",
          "addr:street:type": "Street",
          "amenity": "restaurant",
          "cuisine": "asian",
          "name": "Koi"
        },
        "geometry": {
          "type": "Point",
          "coordinates": [
            -87.681043,
            42.0464133
          ]
        },
        "id": "node/534071716"
      },
      {
        "type": "Feature",
        "properties": {
          "@id": "node/534071720",
          "addr:city": "Evanston",
          "addr:housenumber": "630",
          "addr:postcode": "60201",
          "addr:state": "IL",
          "addr:street": "Church Street",
          "amenity": "restaurant",
          "cuisine": "nepalese;indian",
          "name": "Mt. Everest Restaurant",
          "phone": "+1-847-491-1069"
        },
        "geometry": {
          "type": "Point",
          "coordinates": [
            -87.6803869,
            42.0479543
          ]
        },
        "id": "node/534071720"
      },
      {
        "type": "Feature",
        "properties": {
          "@id": "node/534071721",
          "addr:city": "Evanston",
          "addr:housenumber": "1527",
          "addr:postcode": "60201",
          "addr:state": "IL",
          "addr:street": "Chicago Avenue",
          "addr:street:name": "Chicago",
          "addr:street:type": "Avenue",
          "amenity": "restaurant",
          "brand": "Giordano's Pizzeria",
          "brand:wikidata": "Q5563393",
          "brand:wikipedia": "en:Giordano's",
          "cuisine": "pizza",
          "name": "Giordano's Pizzeria"
        },
        "geometry": {
          "type": "Point",
          "coordinates": [
            -87.6795324,
            42.04602
          ]
        },
        "id": "node/534071721"
      },
      {
        "type": "Feature",
        "properties": {
          "@id": "node/534071722",
          "addr:city": "Evanston",
          "addr:housenumber": "1709",
          "addr:postcode": "60201",
          "addr:state": "IL",
          "addr:street": "Benson Avenue",
          "addr:street:name": "Benson",
          "addr:street:type": "Avenue",
          "amenity": "pub",
          "internet_access": "wlan",
          "name": "BAT 17",
          "outdoor_seating": "yes",
          "phone": "847-733-7117",
          "website": "http://bat17evanston.com/"
        },
        "geometry": {
          "type": "Point",
          "coordinates": [
            -87.68313,
            42.0488773
          ]
        },
        "id": "node/534071722"
      },
      {
        "type": "Feature",
        "properties": {
          "@id": "node/534071723",
          "addr:city": "Evanston",
          "addr:housenumber": "827",
          "addr:postcode": "60201",
          "addr:state": "IL",
          "addr:street": "Church Street",
          "addr:street:name": "Church",
          "addr:street:type": "Street",
          "amenity": "restaurant",
          "cuisine": "breakfast",
          "name": "Le Peep",
          "opening_hours": "Mo-Fr 06:30-14:30; Sa-Su 07:00-14:30",
          "phone": "+1-847-328-4880",
          "website": "https://lepeep.com/stores/evanston/#"
        },
        "geometry": {
          "type": "Point",
          "coordinates": [
            -87.6831096,
            42.0486212
          ]
        },
        "id": "node/534071723"
      },
      {
        "type": "Feature",
        "properties": {
          "@id": "node/534071726",
          "addr:city": "Evanston",
          "addr:housenumber": "825",
          "addr:postcode": "60201",
          "addr:state": "IL",
          "addr:street": "Church Street",
          "addr:street:name": "Church",
          "addr:street:type": "Street",
          "amenity": "restaurant",
          "delivery": "yes",
          "name": "Dixie Kitchen",
          "opening_hours": "Mo-Th 08:00-22:00; Fr 08:00-23:00; Sa 09:00-23:00; Su 09:00-22:00",
          "outdoor_seating": "yes",
          "phone": "847-733-9030",
          "website": "http://dixiekitchenchicago.com/"
        },
        "geometry": {
          "type": "Point",
          "coordinates": [
            -87.6829056,
            42.0486172
          ]
        },
        "id": "node/534071726"
      },
      {
        "type": "Feature",
        "properties": {
          "@id": "node/534071727",
          "addr:city": "Evanston",
          "addr:housenumber": "1743",
          "addr:postcode": "60201",
          "addr:state": "IL",
          "addr:street": "Benson Avenue",
          "addr:street:name": "Benson",
          "addr:street:type": "Avenue",
          "amenity": "fast_food",
          "brand": "Papa John's",
          "brand:wikidata": "Q2759586",
          "brand:wikipedia": "en:Papa John's",
          "cuisine": "pizza",
          "drive_through": "no",
          "name": "Papa John's",
          "takeaway": "yes"
        },
        "geometry": {
          "type": "Point",
          "coordinates": [
            -87.6831554,
            42.0498468
          ]
        },
        "id": "node/534071727"
      },
      {
        "type": "Feature",
        "properties": {
          "@id": "node/534071728",
          "addr:city": "Evanston",
          "addr:housenumber": "626",
          "addr:postcode": "60201",
          "addr:state": "IL",
          "addr:street": "Church Street",
          "addr:street:name": "Church",
          "addr:street:type": "Street",
          "amenity": "pub",
          "internet_access": "wlan",
          "name": "Celtic Knot",
          "outdoor_seating": "yes",
          "phone": "+1 847-864-1679",
          "website": "http://celticknotpub.com/"
        },
        "geometry": {
          "type": "Point",
          "coordinates": [
            -87.6801569,
            42.0479313
          ]
        },
        "id": "node/534071728"
      },
      {
        "type": "Feature",
        "properties": {
          "@id": "node/1427180467",
          "addr:city": "Evanston",
          "addr:housenumber": "1819",
          "addr:postcode": "60202",
          "addr:state": "IL",
          "addr:street": "Howard Street",
          "addr:street:name": "Howard",
          "addr:street:type": "Street",
          "amenity": "place_of_worship",
          "denomination": "mizrahi",
          "name": "Sephardic Congregation",
          "religion": "jewish"
        },
        "geometry": {
          "type": "Point",
          "coordinates": [
            -87.6988433,
            42.0195494
          ]
        },
        "id": "node/1427180467"
      },
      {
        "type": "Feature",
        "properties": {
          "@id": "node/1457099135",
          "addr:city": "Evanston",
          "addr:housenumber": "2916",
          "addr:postcode": "60201",
          "addr:state": "IL",
          "addr:street": "Central Street",
          "amenity": "restaurant",
          "cuisine": "asian",
          "name": "Bonsai Cafe"
        },
        "geometry": {
          "type": "Point",
          "coordinates": [
            -87.7152939,
            42.0643101
          ]
        },
        "id": "node/1457099135"
      },
      {
        "type": "Feature",
        "properties": {
          "@id": "node/1457099145",
          "addr:city": "Evanston",
          "addr:housenumber": "2922",
          "addr:postcode": "60201",
          "addr:state": "IL",
          "addr:street": "Central Street",
          "amenity": "cafe",
          "cuisine": "sandwich",
          "name": "Curt's Cafe"
        },
        "geometry": {
          "type": "Point",
          "coordinates": [
            -87.7157069,
            42.0643161
          ]
        },
        "id": "node/1457099145"
      },
      {
        "type": "Feature",
        "properties": {
          "@id": "node/1583266059",
          "addr:city": "Evanston",
          "addr:housenumber": "1745",
          "addr:postcode": "60201",
          "addr:street": "Sherman Avenue",
          "addr:street:name": "Sherman",
          "addr:street:type": "Avenue",
          "alt_name": "Einstein Brothers Bagels",
          "amenity": "fast_food",
          "brand": "Einstein Bros. Bagels",
          "brand:wikidata": "Q5349788",
          "brand:wikipedia": "en:Einstein Bros. Bagels",
          "cuisine": "bagel",
          "name": "Einstein Bros. Bagels",
          "takeaway": "yes"
        },
        "geometry": {
          "type": "Point",
          "coordinates": [
            -87.6815513,
            42.0498208
          ]
        },
        "id": "node/1583266059"
      },
      {
        "type": "Feature",
        "properties": {
          "@id": "node/1583266070",
          "addr:city": "Evanston",
          "addr:housenumber": "1549",
          "addr:postcode": "60201",
          "addr:state": "IL",
          "addr:street": "Sherman Avenue",
          "amenity": "cafe",
          "name": "The Other Brother",
          "website": "https://www.otherbrothercoffee.com/"
        },
        "geometry": {
          "type": "Point",
          "coordinates": [
            -87.6816811,
            42.0455414
          ]
        },
        "id": "node/1583266070"
      },
      {
        "type": "Feature",
        "properties": {
          "@id": "node/1625505672",
          "addr:city": "Evanston",
          "addr:housenumber": "500",
          "addr:postcode": "60202",
          "addr:state": "IL",
          "addr:street": "Main Street",
          "addr:street:name": "Main",
          "addr:street:type": "Street",
          "amenity": "cafe",
          "cuisine": "coffee",
          "name": "The Brothers K Coffeehouse",
          "opening_hours": "Mo-Fr 06:30-20:00; Sa 07:00-20:00; Su 07:00-19:00",
          "phone": "+1-847-328-7940",
          "website": "http://brotherskcoffee.com/"
        },
        "geometry": {
          "type": "Point",
          "coordinates": [
            -87.6779315,
            42.0337826
          ]
        },
        "id": "node/1625505672"
      },
      {
        "type": "Feature",
        "properties": {
          "@id": "node/1688039905",
          "addr:city": "Evanston",
          "addr:housenumber": "514",
          "addr:postcode": "60202",
          "addr:state": "IL",
          "addr:street": "Main Street",
          "amenity": "restaurant",
          "name": "Lucky Platter",
          "phone": "+1-847-869-4064"
        },
        "geometry": {
          "type": "Point",
          "coordinates": [
            -87.6784055,
            42.0338338
          ]
        },
        "id": "node/1688039905"
      },
      {
        "type": "Feature",
        "properties": {
          "@id": "node/1688039909",
          "addr:city": "Evanston",
          "addr:housenumber": "519",
          "addr:postcode": "60202",
          "addr:street": "Main Street",
          "addr:street:name": "Main",
          "addr:street:type": "Street",
          "amenity": "cafe",
          "brand": "Starbucks",
          "brand:wikidata": "Q37158",
          "brand:wikipedia": "en:Starbucks",
          "cuisine": "coffee_shop",
          "name": "Starbucks",
          "official_name": "Starbucks Coffee",
          "takeaway": "yes"
        },
        "geometry": {
          "type": "Point",
          "coordinates": [
            -87.6787749,
            42.0340803
          ]
        },
        "id": "node/1688039909"
      },
      {
        "type": "Feature",
        "properties": {
          "@id": "node/1688040159",
          "addr:city": "Evanston",
          "addr:housenumber": "511A",
          "addr:postcode": "60202",
          "addr:street": "Main Street",
          "addr:street:name": "Main",
          "addr:street:type": "Street",
          "amenity": "restaurant",
          "cuisine": "japanese",
          "name": "Kuni's",
          "phone": "847-328-2004"
        },
        "geometry": {
          "type": "Point",
          "coordinates": [
            -87.6784084,
            42.0340775
          ]
        },
        "id": "node/1688040159"
      },
      {
        "type": "Feature",
        "properties": {
          "@id": "node/1776712319",
          "addr:city": "Evanston",
          "addr:housenumber": "801",
          "addr:postcode": "60202",
          "addr:state": "IL",
          "addr:street": "Chicago Avenue",
          "addr:street:name": "Chicago",
          "addr:street:type": "Avenue",
          "amenity": "car_rental",
          "brand": "Avis;Budget",
          "brand:wikidata": "Q791136;Q1001437",
          "brand:wikipedia": "en:Avis Car Rental;en:Budget Rent a Car",
          "name": "Avis & Budget",
          "official_name": "Budget Rent a Car"
        },
        "geometry": {
          "type": "Point",
          "coordinates": [
            -87.6788385,
            42.0322646
          ]
        },
        "id": "node/1776712319"
      },
      {
        "type": "Feature",
        "properties": {
          "@id": "node/1799777872",
          "addr:city": "Evanston",
          "addr:housenumber": "913",
          "addr:postcode": "60202",
          "addr:street": "Chicago Avenue",
          "addr:street:name": "Chicago",
          "addr:street:type": "Avenue",
          "amenity": "restaurant",
          "cuisine": "greek",
          "name": "Cross Rhodes"
        },
        "geometry": {
          "type": "Point",
          "coordinates": [
            -87.6793111,
            42.0344645
          ]
        },
        "id": "node/1799777872"
      },
      {
        "type": "Feature",
        "properties": {
          "@id": "node/1799777874",
          "addr:city": "Evanston",
          "addr:housenumber": "1047B",
          "addr:postcode": "60202",
          "addr:street": "Chicago Avenue",
          "addr:street:name": "Chicago",
          "addr:street:type": "Avenue",
          "amenity": "fast_food",
          "cuisine": "burger",
          "name": "Evanston Grill",
          "phone": "847-328-3339"
        },
        "geometry": {
          "type": "Point",
          "coordinates": [
            -87.6799057,
            42.037382
          ]
        },
        "id": "node/1799777874"
      },
      {
        "type": "Feature",
        "properties": {
          "@id": "node/1799777885",
          "addr:city": "Evanston",
          "addr:housenumber": "900",
          "addr:postcode": "60202",
          "addr:state": "IL",
          "addr:street": "Chicago Avenue",
          "addr:unit": "101",
          "amenity": "fast_food",
          "brand": "Subway",
          "brand:wikidata": "Q244457",
          "brand:wikipedia": "en:Subway (restaurant)",
          "cuisine": "sandwich",
          "drive_through": "no",
          "name": "Subway",
          "operator": "Subway",
          "takeaway": "yes"
        },
        "geometry": {
          "type": "Point",
          "coordinates": [
            -87.6795822,
            42.0340827
          ]
        },
        "id": "node/1799777885"
      },
      {
        "type": "Feature",
        "properties": {
          "@id": "node/1842860100",
          "addr:city": "Evanston",
          "addr:housenumber": "1701",
          "addr:postcode": "60201",
          "addr:state": "IL",
          "addr:street": "Maple Avenue",
          "addr:street:name": "Maple",
          "addr:street:type": "Avenue",
          "amenity": "restaurant",
          "cuisine": "italian",
          "internet_access": "wlan",
          "name": "Terra & Vine",
          "outdoor_seating": "yes",
          "phone": "+1-847-563-4333"
        },
        "geometry": {
          "type": "Point",
          "coordinates": [
            -87.6845928,
            42.0487486
          ]
        },
        "id": "node/1842860100"
      },
      {
        "type": "Feature",
        "properties": {
          "@id": "node/1843040165",
          "addr:city": "Evanston",
          "addr:housenumber": "635",
          "addr:postcode": "60202",
          "addr:state": "IL",
          "addr:street": "Chicago Avenue",
          "addr:unit": "2",
          "amenity": "bank",
          "brand": "Chase",
          "brand:wikidata": "Q524629",
          "brand:wikipedia": "en:Chase Bank",
          "name": "Chase",
          "opening_hours": "Mo-Th 08:30-18:00; Fr 08:30-19:00; Sa 08:30-15:00"
        },
        "geometry": {
          "type": "Point",
          "coordinates": [
            -87.6781443,
            42.0305984
          ]
        },
        "id": "node/1843040165"
      },
      {
        "type": "Feature",
        "properties": {
          "@id": "node/1843040170",
          "addr:city": "Evanston",
          "addr:housenumber": "635",
          "addr:postcode": "60202",
          "addr:state": "IL",
          "addr:street": "Chicago Avenue",
          "addr:unit": "12",
          "amenity": "restaurant",
          "cuisine": "chinese",
          "name": "Hunan Spring Restaurant",
          "phone": "847-328-8082"
        },
        "geometry": {
          "type": "Point",
          "coordinates": [
            -87.678023,
            42.0300158
          ]
        },
        "id": "node/1843040170"
      },
      {
        "type": "Feature",
        "properties": {
          "@id": "node/1843040172",
          "addr:city": "Evanston",
          "addr:housenumber": "635",
          "addr:postcode": "60202",
          "addr:state": "IL",
          "addr:street": "Chicago Avenue",
          "addr:unit": "6",
          "amenity": "dentist",
          "healthcare": "dentist",
          "name": "North Shore Dental",
          "phone": "847-491-0880"
        },
        "geometry": {
          "type": "Point",
          "coordinates": [
            -87.6781076,
            42.0303955
          ]
        },
        "id": "node/1843040172"
      },
      {
        "type": "Feature",
        "properties": {
          "@id": "node/1855119978",
          "addr:city": "Evanston",
          "addr:housenumber": "505",
          "addr:postcode": "60202",
          "addr:state": "IL",
          "addr:street": "Main Street",
          "addr:street:name": "Main",
          "addr:street:type": "Street",
          "amenity": "restaurant",
          "cuisine": "seafood",
          "name": "Oceanique",
          "phone": "+1-847-864-3435",
          "wikidata": "Q18706011",
          "wikipedia": "en:Oceanique"
        },
        "geometry": {
          "type": "Point",
          "coordinates": [
            -87.6781136,
            42.034078
          ]
        },
        "id": "node/1855119978"
      },
      {
        "type": "Feature",
        "properties": {
          "@id": "node/1855119983",
          "addr:city": "Evanston",
          "addr:housenumber": "503",
          "addr:postcode": "60202",
          "addr:street": "Main Street",
          "addr:street:name": "Main",
          "addr:street:type": "Street",
          "amenity": "restaurant",
          "cuisine": "japanese",
          "name": "Siam Paragon"
        },
        "geometry": {
          "type": "Point",
          "coordinates": [
            -87.6780331,
            42.0340791
          ]
        },
        "id": "node/1855119983"
      },
      {
        "type": "Feature",
        "properties": {
          "@id": "node/1855119998",
          "addr:city": "Evanston",
          "addr:housenumber": "501",
          "addr:postcode": "60202",
          "addr:street": "Main Street",
          "addr:street:name": "Main",
          "addr:street:type": "Street",
          "amenity": "spa",
          "name": "Agora Spa"
        },
        "geometry": {
          "type": "Point",
          "coordinates": [
            -87.6779578,
            42.0340787
          ]
        },
        "id": "node/1855119998"
      },
      {
        "type": "Feature",
        "properties": {
          "@id": "node/1933209461",
          "addr:city": "Evanston",
          "addr:housenumber": "1450",
          "addr:postcode": "60201",
          "addr:state": "IL",
          "addr:street": "Sherman Avenue",
          "addr:street:name": "Sherman",
          "addr:street:type": "Avenue",
          "amenity": "bar",
          "name": "Tommy Nevin's Irish Pub"
        },
        "geometry": {
          "type": "Point",
          "coordinates": [
            -87.6821152,
            42.0442833
          ]
        },
        "id": "node/1933209461"
      },
      {
        "type": "Feature",
        "properties": {
          "@id": "node/1936244264",
          "addr:city": "Evanston",
          "addr:housenumber": "610",
          "addr:postcode": "60201",
          "addr:street": "Davis Street",
          "addr:street:name": "Davis",
          "addr:street:type": "Street",
          "amenity": "restaurant",
          "name": "Olive Mountain"
        },
        "geometry": {
          "type": "Point",
          "coordinates": [
            -87.6804806,
            42.0462525
          ]
        },
        "id": "node/1936244264"
      },
      {
        "type": "Feature",
        "properties": {
          "@id": "node/1969371798",
          "addr:city": "Evanston",
          "addr:housenumber": "700",
          "addr:street": "Main Street",
          "amenity": "restaurant",
          "cuisine": "mexican",
          "name": "La Principal",
          "opening_hours": "Tu-Su 11:00-22:00",
          "takeaway": "yes"
        },
        "geometry": {
          "type": "Point",
          "coordinates": [
            -87.6805703,
            42.0338348
          ]
        },
        "id": "node/1969371798"
      },
      {
        "type": "Feature",
        "properties": {
          "@id": "node/1975191327",
          "addr:city": "Evanston",
          "addr:housenumber": "600",
          "addr:postcode": "60202",
          "addr:street": "Main Street",
          "addr:street:name": "Main",
          "addr:street:type": "Street",
          "amenity": "cafe",
          "name": "Piccolatté Cafè"
        },
        "geometry": {
          "type": "Point",
          "coordinates": [
            -87.6799734,
            42.033544
          ]
        },
        "id": "node/1975191327"
      },
      {
        "type": "Feature",
        "properties": {
          "@id": "node/2070712483",
          "addr:city": "Evanston",
          "addr:housenumber": "930",
          "addr:postcode": "60201",
          "addr:state": "IL",
          "addr:street": "Church Street",
          "addr:street:name": "Church",
          "addr:street:type": "Street",
          "amenity": "restaurant",
          "brand": "Noodles & Company",
          "brand:wikidata": "Q7049673",
          "brand:wikipedia": "en:Noodles & Company",
          "cuisine": "pasta",
          "name": "Noodles & Company",
          "opening_hours": "Su-We 10:30-22:00; Th-Sa 10:30-22:30"
        },
        "geometry": {
          "type": "Point",
          "coordinates": [
            -87.6842128,
            42.0483112
          ]
        },
        "id": "node/2070712483"
      },
      {
        "type": "Feature",
        "properties": {
          "@id": "node/2086267703",
          "addr:city": "Evanston",
          "addr:housenumber": "940",
          "addr:postcode": "60201",
          "addr:state": "IL",
          "addr:street": "Church Street",
          "addr:street:name": "Church",
          "addr:street:type": "Street",
          "amenity": "fast_food",
          "cuisine": "juice",
          "drive_through": "no",
          "name": "Juice Bar",
          "opening_hours": "Mo-Fr 08:00-21:00; Sa 09:00-22:00; Su 10:00-20:00",
          "phone": "847-869-7335"
        },
        "geometry": {
          "type": "Point",
          "coordinates": [
            -87.6843194,
            42.0483082
          ]
        },
        "id": "node/2086267703"
      },
      {
        "type": "Feature",
        "properties": {
          "@id": "node/2087672897",
          "addr:city": "Evanston",
          "addr:housenumber": "1765",
          "addr:postcode": "60201",
          "addr:state": "IL",
          "addr:street": "Maple Avenue",
          "addr:street:name": "Maple",
          "addr:street:type": "Avenue",
          "amenity": "restaurant",
          "brand": "Chili's",
          "brand:wikidata": "Q1072948",
          "brand:wikipedia": "en:Chili's",
          "cuisine": "tex-mex",
          "name": "Chili's",
          "official_name": "Chili's Grill & Bar",
          "phone": "847-328-9068",
          "website": "https://www.chilis.com/"
        },
        "geometry": {
          "type": "Point",
          "coordinates": [
            -87.6845823,
            42.0498166
          ]
        },
        "id": "node/2087672897"
      },
      {
        "type": "Feature",
        "properties": {
          "@id": "node/2139418956",
          "addr:city": "Evanston",
          "addr:housenumber": "525",
          "addr:postcode": "60201",
          "addr:state": "IL",
          "addr:street": "Dempster Street",
          "addr:street:name": "Dempster",
          "addr:street:type": "Street",
          "amenity": "cafe",
          "diet:vegan": "yes",
          "diet:vegetarian": "yes",
          "name": "Blind Faith Cafe",
          "phone": "+1-847-328-6875"
        },
        "geometry": {
          "type": "Point",
          "coordinates": [
            -87.6801691,
            42.0413218
          ]
        },
        "id": "node/2139418956"
      },
      {
        "type": "Feature",
        "properties": {
          "@id": "node/2139418960",
          "addr:city": "Evanston",
          "addr:housenumber": "601",
          "addr:postcode": "60201",
          "addr:street": "Dempster Street",
          "addr:street:name": "Dempster",
          "addr:street:type": "Street",
          "amenity": "restaurant",
          "name": "Dozika"
        },
        "geometry": {
          "type": "Point",
          "coordinates": [
            -87.6808357,
            42.0413118
          ]
        },
        "id": "node/2139418960"
      },
      {
        "type": "Feature",
        "properties": {
          "@id": "node/2144178213",
          "addr:city": "Evanston",
          "addr:housenumber": "701",
          "addr:postcode": "60202",
          "addr:state": "IL",
          "addr:street": "Main Street",
          "amenity": "post_office",
          "brand": "United States Post Office",
          "brand:wikidata": "Q668687",
          "brand:wikipedia": "en:United States Postal Service",
          "name": "Evanston South Post Office",
          "operator": "United States Postal Service",
          "operator:short": "USPS",
          "operator:type": "public",
          "operator:wikidata": "Q668687",
          "operator:wikipedia": "en:United States Postal Service",
          "short_name": "USPS"
        },
        "geometry": {
          "type": "Point",
          "coordinates": [
            -87.6806578,
            42.0340845
          ]
        },
        "id": "node/2144178213"
      },
      {
        "type": "Feature",
        "properties": {
          "@id": "node/2156436565",
          "addr:city": "Evanston",
          "addr:housenumber": "703",
          "addr:postcode": "60201",
          "addr:street": "Church Street",
          "addr:street:name": "Church",
          "addr:street:type": "Street",
          "amenity": "restaurant",
          "cuisine": "american",
          "name": "Farmhouse",
          "phone": "+1-847-491-9220",
          "website": "https://www.farmhouseevanston.com/"
        },
        "geometry": {
          "type": "Point",
          "coordinates": [
            -87.680894,
            42.0485916
          ]
        },
        "id": "node/2156436565"
      },
      {
        "type": "Feature",
        "properties": {
          "@id": "node/2156438940",
          "addr:city": "Evanston",
          "addr:housenumber": "1710",
          "addr:postcode": "60201",
          "addr:street": "Orrington Avenue",
          "addr:street:name": "Orrington",
          "addr:street:type": "Avenue",
          "amenity": "bar",
          "name": "Globe Cafe & Bar"
        },
        "geometry": {
          "type": "Point",
          "coordinates": [
            -87.680818,
            42.048834
          ]
        },
        "id": "node/2156438940"
      },
      {
        "type": "Feature",
        "properties": {
          "@id": "node/2156521612",
          "addr:city": "Evanston",
          "addr:housenumber": "618",
          "addr:postcode": "60201",
          "addr:street": "Church Street",
          "addr:street:name": "Church",
          "addr:street:type": "Street",
          "amenity": "restaurant",
          "cuisine": "french",
          "name": "Bistro Bordeaux",
          "phone": "847-424-1483",
          "website": "http://lebistrobordeaux.com/"
        },
        "geometry": {
          "type": "Point",
          "coordinates": [
            -87.6799943,
            42.0478848
          ]
        },
        "id": "node/2156521612"
      },
      {
        "type": "Feature",
        "properties": {
          "@id": "node/2156521636",
          "addr:city": "Evanston",
          "addr:housenumber": "1571",
          "addr:postcode": "60201",
          "addr:state": "IL",
          "addr:street": "Sherman Avenue",
          "addr:street:name": "Sherman",
          "addr:street:type": "Avenue",
          "amenity": "restaurant",
          "cuisine": "burger",
          "name": "Edzo's Burger Shop",
          "opening_hours": "Tu-Su 10:30-16:00",
          "phone": "+1-847-864-3396",
          "phone:mnemonic": "+1-847-864-EDZO"
        },
        "geometry": {
          "type": "Point",
          "coordinates": [
            -87.6815357,
            42.0461989
          ]
        },
        "id": "node/2156521636"
      },
      {
        "type": "Feature",
        "properties": {
          "@id": "node/2202182424",
          "addr:city": "Evanston",
          "addr:housenumber": "528",
          "addr:postcode": "60202",
          "addr:state": "IL",
          "addr:street": "Dempster Street",
          "addr:street:name": "Dempster",
          "addr:street:type": "Street",
          "amenity": "cafe",
          "cuisine": "coffee_shop",
          "internet_access:fee": "no",
          "name": "Evanston Pour",
          "outdoor_seating": "no",
          "website": "https://www.evanstonpour.com/"
        },
        "geometry": {
          "type": "Point",
          "coordinates": [
            -87.6803249,
            42.0410329
          ]
        },
        "id": "node/2202182424"
      },
      {
        "type": "Feature",
        "properties": {
          "@id": "node/2202198597",
          "addr:city": "Evanston",
          "addr:housenumber": "600",
          "addr:postcode": "60201",
          "addr:street": "Davis Street",
          "addr:street:name": "Davis",
          "addr:street:type": "Street",
          "amenity": "cafe",
          "name": "Patisserie Coralie"
        },
        "geometry": {
          "type": "Point",
          "coordinates": [
            -87.6799562,
            42.0461498
          ]
        },
        "id": "node/2202198597"
      },
      {
        "type": "Feature",
        "properties": {
          "@id": "node/2202198781",
          "addr:city": "Evanston",
          "addr:housenumber": "622",
          "addr:postcode": "60201",
          "addr:street": "Davis Street",
          "addr:street:name": "Davis",
          "addr:street:type": "Street",
          "amenity": "restaurant",
          "cuisine": "sandwich",
          "name": "Cheesie's Pub & Grub"
        },
        "geometry": {
          "type": "Point",
          "coordinates": [
            -87.680947,
            42.0463737
          ]
        },
        "id": "node/2202198781"
      },
      {
        "type": "Feature",
        "properties": {
          "@id": "node/2210256087",
          "addr:city": "Evanston",
          "addr:housenumber": "1622",
          "addr:postcode": "60201",
          "addr:state": "IL",
          "addr:street": "Chicago Avenue",
          "addr:street:name": "Chicago",
          "addr:street:type": "Avenue",
          "amenity": "cafe",
          "brand": "Peet's Coffee",
          "brand:wikidata": "Q1094101",
          "brand:wikipedia": "en:Peet's Coffee",
          "cuisine": "coffee_shop",
          "name": "Peet's Coffee",
          "takeaway": "yes"
        },
        "geometry": {
          "type": "Point",
          "coordinates": [
            -87.67958,
            42.0469852
          ]
        },
        "id": "node/2210256087"
      },
      {
        "type": "Feature",
        "properties": {
          "@id": "node/2212088885",
          "addr:city": "Evanston",
          "addr:housenumber": "1241",
          "addr:postcode": "60202",
          "addr:street": "Chicago Avenue",
          "addr:street:name": "Chicago",
          "addr:street:type": "Avenue",
          "amenity": "fast_food",
          "brand": "Jimmy John's",
          "brand:wikidata": "Q1689380",
          "brand:wikipedia": "en:Jimmy John's",
          "cuisine": "sandwich",
          "name": "Jimmy John's",
          "official_name": "Jimmy John's Gourmet Sandwiches",
          "opening_hours": "11:00-23:00",
          "phone": "847-328-0031",
          "takeaway": "yes"
        },
        "geometry": {
          "type": "Point",
          "coordinates": [
            -87.6803331,
            42.0406379
          ]
        },
        "id": "node/2212088885"
      },
      {
        "type": "Feature",
        "properties": {
          "@id": "node/2282178129",
          "addr:city": "Evanston",
          "addr:housenumber": "2966",
          "addr:postcode": "60201",
          "addr:state": "IL",
          "addr:street": "Central Street",
          "amenity": "fuel",
          "brand": "Shell",
          "brand:wikidata": "Q110716465",
          "brand:wikipedia": "en:Royal Dutch Shell",
          "name": "Shell",
          "self_service": "yes"
        },
        "geometry": {
          "type": "Point",
          "coordinates": [
            -87.7174926,
            42.0643535
          ]
        },
        "id": "node/2282178129"
      },
      {
        "type": "Feature",
        "properties": {
          "@id": "node/2282178377",
          "addr:city": "Evanston",
          "addr:housenumber": "2114",
          "addr:postcode": "60201",
          "addr:street": "Central Street",
          "addr:street:name": "Central",
          "addr:street:type": "Street",
          "amenity": "cafe",
          "brand": "Starbucks",
          "brand:wikidata": "Q37158",
          "brand:wikipedia": "en:Starbucks",
          "cuisine": "coffee_shop",
          "drive_through": "no",
          "internet_access": "wlan",
          "name": "Starbucks",
          "official_name": "Starbucks Coffee",
          "opening_hours": "05:00-21:00",
          "phone": "847-328-1369",
          "takeaway": "yes",
          "website": "https://www.starbucks.com/store-locator/store/12281/2114-central-st-evanston-2114-central-st-evanston-il-602015812-us"
        },
        "geometry": {
          "type": "Point",
          "coordinates": [
            -87.7028182,
            42.064196
          ]
        },
        "id": "node/2282178377"
      },
      {
        "type": "Feature",
        "properties": {
          "@id": "node/2282179234",
          "addr:housenumber": "1932",
          "addr:postcode": "60201",
          "addr:street": "Central Street",
          "amenity": "restaurant",
          "cuisine": "american",
          "name": "Bluestone Cafe"
        },
        "geometry": {
          "type": "Point",
          "coordinates": [
            -87.7001631,
            42.0641954
          ]
        },
        "id": "node/2282179234"
      },
      {
        "type": "Feature",
        "properties": {
          "@id": "node/2282185165",
          "addr:city": "Evanston",
          "addr:housenumber": "1929",
          "addr:postcode": "60201",
          "addr:state": "IL",
          "addr:street": "Central Street",
          "addr:street:name": "Central",
          "addr:street:type": "Street",
          "amenity": "post_office",
          "brand": "United States Post Office",
          "brand:wikidata": "Q668687",
          "brand:wikipedia": "en:United States Postal Service",
          "name": "Evanston North Post Office",
          "operator": "United States Postal Service",
          "operator:short": "USPS",
          "operator:type": "public",
          "operator:wikidata": "Q668687",
          "operator:wikipedia": "en:United States Postal Service",
          "short_name": "USPS"
        },
        "geometry": {
          "type": "Point",
          "coordinates": [
            -87.700253,
            42.0644702
          ]
        },
        "id": "node/2282185165"
      },
      {
        "type": "Feature",
        "properties": {
          "@id": "node/2282187288",
          "amenity": "parking",
          "capacity": "11",
          "fee": "no",
          "name": "Lincolnwood Street Parking",
          "operator": "City of Evanston"
        },
        "geometry": {
          "type": "Point",
          "coordinates": [
            -87.7154088,
            42.0642273
          ]
        },
        "id": "node/2282187288"
      },
      {
        "type": "Feature",
        "properties": {
          "@id": "node/2282188025",
          "addr:city": "Evanston",
          "addr:housenumber": "3330",
          "addr:postcode": "60201",
          "addr:state": "IL",
          "addr:street": "Central Street",
          "amenity": "fast_food",
          "brand": "Subway",
          "brand:wikidata": "Q244457",
          "brand:wikipedia": "en:Subway (restaurant)",
          "cuisine": "sandwich",
          "name": "Subway",
          "takeaway": "yes"
        },
        "geometry": {
          "type": "Point",
          "coordinates": [
            -87.7270476,
            42.0642674
          ]
        },
        "id": "node/2282188025"
      },
      {
        "type": "Feature",
        "properties": {
          "@id": "node/2282193193",
          "amenity": "atm",
          "brand": "Chase",
          "brand:wikidata": "Q524629",
          "brand:wikipedia": "en:Chase Bank",
          "cash_in": "yes",
          "drive_through": "yes",
          "name": "Chase",
          "operator": "Chase",
          "operator:wikidata": "Q524629",
          "operator:wikipedia": "en:Chase Bank"
        },
        "geometry": {
          "type": "Point",
          "coordinates": [
            -87.7170074,
            42.0646415
          ]
        },
        "id": "node/2282193193"
      },
      {
        "type": "Feature",
        "properties": {
          "@id": "node/2282194185",
          "addr:city": "Evanston",
          "addr:housenumber": "2925",
          "addr:postcode": "60201",
          "addr:state": "IL",
          "addr:street": "Central Street",
          "amenity": "bank",
          "atm": "yes",
          "brand": "Byline Bank",
          "brand:wikidata": "Q6824994",
          "brand:wikipedia": "en:Byline Bank",
          "drive_through": "yes",
          "name": "Byline Bank",
          "website": "https://www.bylinebank.com/"
        },
        "geometry": {
          "type": "Point",
          "coordinates": [
            -87.7158165,
            42.0646694
          ]
        },
        "id": "node/2282194185"
      },
      {
        "type": "Feature",
        "properties": {
          "@id": "node/2282194406",
          "addr:city": "Evanston",
          "addr:housenumber": "2821",
          "addr:postcode": "60201",
          "addr:state": "IL",
          "addr:street": "Central Street",
          "amenity": "bank",
          "atm": "yes",
          "brand": "BMO Harris Bank",
          "brand:wikidata": "Q4835981",
          "brand:wikipedia": "en:BMO Harris Bank",
          "drive_through": "yes",
          "name": "BMO Harris Bank"
        },
        "geometry": {
          "type": "Point",
          "coordinates": [
            -87.7135206,
            42.0646754
          ]
        },
        "id": "node/2282194406"
      },
      {
        "type": "Feature",
        "properties": {
          "@id": "node/2282784637",
          "addr:city": "Evanston",
          "addr:housenumber": "1502",
          "addr:postcode": "60201",
          "addr:state": "IL",
          "addr:street": "Sherman Avenue",
          "addr:street:name": "Sherman",
          "addr:street:type": "Avenue",
          "amenity": "pub",
          "internet_access": "wlan",
          "name": "Prairie Moon",
          "website": "www.prairiemoonrestaurant.com/"
        },
        "geometry": {
          "type": "Point",
          "coordinates": [
            -87.6820859,
            42.0448416
          ]
        },
        "id": "node/2282784637"
      },
      {
        "type": "Feature",
        "properties": {
          "@id": "node/2282784638",
          "addr:city": "Evanston",
          "addr:housenumber": "1601",
          "addr:postcode": "60201",
          "addr:street": "Sherman Avenue",
          "addr:street:name": "Sherman",
          "addr:street:type": "Avenue",
          "amenity": "pub",
          "name": "Evanston Pub",
          "opening_hours": "Mo-Th 15:00-01:00; Fr 15:00-02:00; Sa-Su 12:00-02:00",
          "phone": "847-328-3688",
          "wheelchair": "yes"
        },
        "geometry": {
          "type": "Point",
          "coordinates": [
            -87.6815944,
            42.047158
          ]
        },
        "id": "node/2282784638"
      },
      {
        "type": "Feature",
        "properties": {
          "@id": "node/2293170480",
          "addr:city": "Evanston",
          "addr:housenumber": "821",
          "addr:postcode": "60202",
          "addr:street": "Chicago Avenue",
          "addr:street:name": "Chicago",
          "addr:street:type": "Avenue",
          "amenity": "brewery",
          "name": "Brew Camp"
        },
        "geometry": {
          "type": "Point",
          "coordinates": [
            -87.6789794,
            42.032929
          ]
        },
        "id": "node/2293170480"
      },
      {
        "type": "Feature",
        "properties": {
          "@id": "node/2294090430",
          "addr:city": "Evanston",
          "addr:housenumber": "2310",
          "addr:postcode": "60202",
          "addr:state": "IL",
          "addr:street": "Oakton Street",
          "addr:street:name": "Oakton",
          "addr:street:type": "Street",
          "amenity": "animal_shelter",
          "name": "Evanston Animal Shelter"
        },
        "geometry": {
          "type": "Point",
          "coordinates": [
            -87.7063596,
            42.0261673
          ]
        },
        "id": "node/2294090430"
      },
      {
        "type": "Feature",
        "properties": {
          "@id": "node/2294090551",
          "addr:city": "Evanston",
          "addr:housenumber": "251",
          "addr:postcode": "60202",
          "addr:street": "Asbury Avenue",
          "addr:street:name": "Asbury",
          "addr:street:type": "Avenue",
          "amenity": "place_of_worship",
          "ele": "186",
          "gnis:county_id": "031",
          "gnis:created": "11/27/2006",
          "gnis:feature_id": "2099424",
          "gnis:state_id": "17",
          "name": "New Bibleway Church",
          "religion": "christian"
        },
        "geometry": {
          "type": "Point",
          "coordinates": [
            -87.6898934,
            42.0230137
          ]
        },
        "id": "node/2294090551"
      },
      {
        "type": "Feature",
        "properties": {
          "@id": "node/2294090972",
          "addr:city": "Evanston",
          "addr:housenumber": "337",
          "addr:postcode": "60202",
          "addr:state": "IL",
          "addr:street": "Howard Street",
          "addr:street:name": "Howard",
          "addr:street:type": "Street",
          "amenity": "fast_food",
          "brand": "Harold's Chicken Shack",
          "brand:wikidata": "Q5659832",
          "brand:wikipedia": "en:Harold's Chicken Shack",
          "cuisine": "chicken",
          "drive_through": "no",
          "name": "Harold's Chicken Shack",
          "takeaway": "yes"
        },
        "geometry": {
          "type": "Point",
          "coordinates": [
            -87.6744706,
            42.0195318
          ]
        },
        "id": "node/2294090972"
      },
      {
        "type": "Feature",
        "properties": {
          "@id": "node/2294091372",
          "addr:city": "Evanston",
          "addr:housenumber": "443",
          "addr:postcode": "60202",
          "addr:street": "Asbury Avenue",
          "addr:street:name": "Asbury",
          "addr:street:type": "Avenue",
          "amenity": "fuel",
          "brand": "Citgo",
          "brand:wikidata": "Q2974437",
          "brand:wikipedia": "en:Citgo",
          "name": "Citgo",
          "self_service": "yes"
        },
        "geometry": {
          "type": "Point",
          "coordinates": [
            -87.6898784,
            42.0264434
          ]
        },
        "id": "node/2294091372"
      },
      {
        "type": "Feature",
        "properties": {
          "@id": "node/2294091480",
          "addr:city": "Evanston",
          "addr:housenumber": "623",
          "addr:postcode": "60202",
          "addr:state": "IL",
          "addr:street": "Howard Street",
          "addr:street:name": "Howard",
          "addr:street:type": "Street",
          "amenity": "restaurant",
          "cuisine": "pub",
          "name": "Peckish Pig",
          "phone": "+1-847-491-6778"
        },
        "geometry": {
          "type": "Point",
          "coordinates": [
            -87.6793902,
            42.0195987
          ]
        },
        "id": "node/2294091480"
      },
      {
        "type": "Feature",
        "properties": {
          "@id": "node/2294092487",
          "addr:city": "Evanston",
          "addr:housenumber": "951",
          "addr:postcode": "60202",
          "addr:state": "IL",
          "addr:street": "Howard Street",
          "addr:street:name": "Howard",
          "addr:street:type": "Street",
          "amenity": "fast_food",
          "brand": "Pizza Hut",
          "brand:wikidata": "Q191615",
          "brand:wikipedia": "en:Pizza Hut",
          "cuisine": "pizza",
          "delivery": "yes",
          "name": "Pizza Hut Delivery",
          "takeaway": "only"
        },
        "geometry": {
          "type": "Point",
          "coordinates": [
            -87.6848993,
            42.0198035
          ]
        },
        "id": "node/2294092487"
      },
      {
        "type": "Feature",
        "properties": {
          "@id": "node/2294238472",
          "addr:city": "Evanston",
          "addr:housenumber": "706",
          "addr:postcode": "60202",
          "addr:street": "Main Street",
          "addr:street:name": "Main",
          "addr:street:type": "Street",
          "amenity": "restaurant",
          "cuisine": "italian",
          "name": "Trattoria DOC",
          "opening_hours": "12:00-22:00; Su 12:00-21:00"
        },
        "geometry": {
          "type": "Point",
          "coordinates": [
            -87.6810555,
            42.0338458
          ]
        },
        "id": "node/2294238472"
      },
      {
        "type": "Feature",
        "properties": {
          "@id": "node/2294252631",
          "addr:city": "Evanston",
          "addr:housenumber": "2428",
          "addr:postcode": "60202",
          "addr:state": "IL",
          "addr:street": "Main Street",
          "addr:street:name": "Main",
          "addr:street:type": "Street",
          "amenity": "fast_food",
          "brand": "Sarpino's Pizzeria",
          "brand:wikidata": "Q28229116",
          "brand:wikipedia": "en:Sarpino's Pizzeria",
          "cuisine": "pizza",
          "name": "Sarpino's Pizzeria",
          "takeaway": "yes"
        },
        "geometry": {
          "type": "Point",
          "coordinates": [
            -87.7068773,
            42.0330898
          ]
        },
        "id": "node/2294252631"
      },
      {
        "type": "Feature",
        "properties": {
          "@id": "node/2294252634",
          "addr:city": "Evanston",
          "addr:housenumber": "2434",
          "addr:postcode": "60202",
          "addr:state": "IL",
          "addr:street": "Main Street",
          "addr:street:name": "Main",
          "addr:street:type": "Street",
          "amenity": "fast_food",
          "brand": "Wingstop",
          "brand:wikidata": "Q8025339",
          "brand:wikipedia": "en:Wingstop",
          "cuisine": "wings",
          "name": "Wingstop",
          "takeaway": "yes"
        },
        "geometry": {
          "type": "Point",
          "coordinates": [
            -87.7071136,
            42.0330909
          ]
        },
        "id": "node/2294252634"
      },
      {
        "type": "Feature",
        "properties": {
          "@id": "node/2294252768",
          "addr:city": "Evanston",
          "addr:housenumber": "719",
          "addr:postcode": "60202",
          "addr:state": "IL",
          "addr:street": "Main Street",
          "addr:street:name": "Main",
          "addr:street:type": "Street",
          "amenity": "doctors",
          "entrance": "yes",
          "healthcare": "doctor",
          "name": "Rebecca Mueller Psy.D"
        },
        "geometry": {
          "type": "Point",
          "coordinates": [
            -87.6813528,
            42.0340931
          ]
        },
        "id": "node/2294252768"
      },
      {
        "type": "Feature",
        "properties": {
          "@id": "node/2294252813",
          "addr:city": "Evanston",
          "addr:housenumber": "741",
          "addr:postcode": "60202",
          "addr:state": "IL",
          "addr:street": "Main Street",
          "addr:street:name": "Main",
          "addr:street:type": "Street",
          "amenity": "bank",
          "atm": "yes",
          "drive_through": "no",
          "name": "First Bank Trust"
        },
        "geometry": {
          "type": "Point",
          "coordinates": [
            -87.6819636,
            42.0340969
          ]
        },
        "id": "node/2294252813"
      },
      {
        "type": "Feature",
        "properties": {
          "@id": "node/2294252957",
          "addr:city": "Evanston",
          "addr:housenumber": "841",
          "addr:postcode": "60202",
          "addr:state": "IL",
          "addr:street": "Dodge Avenue",
          "addr:street:name": "Dodge",
          "addr:street:type": "Avenue",
          "amenity": "clinic",
          "healthcare": "clinic",
          "name": "Family Health Care",
          "operator": "Carl E. Hill",
          "phone": "847-491-1150"
        },
        "geometry": {
          "type": "Point",
          "coordinates": [
            -87.6988903,
            42.033467
          ]
        },
        "id": "node/2294252957"
      },
      {
        "type": "Feature",
        "properties": {
          "@id": "node/2294252961",
          "addr:city": "Evanston",
          "addr:housenumber": "843",
          "addr:postcode": "60202",
          "addr:state": "IL",
          "addr:street": "Dodge Avenue",
          "addr:street:name": "Dodge",
          "addr:street:type": "Avenue",
          "amenity": "restaurant",
          "cuisine": "mexican",
          "name": "The Supreme Burrito #1"
        },
        "geometry": {
          "type": "Point",
          "coordinates": [
            -87.6988895,
            42.0335492
          ]
        },
        "id": "node/2294252961"
      },
      {
        "type": "Feature",
        "properties": {
          "@id": "node/2294252971",
          "addr:city": "Evanston",
          "addr:housenumber": "848",
          "addr:postcode": "60202",
          "addr:state": "IL",
          "addr:street": "Dodge Avenue",
          "addr:street:name": "Dodge",
          "addr:street:type": "Avenue",
          "amenity": "post_office",
          "brand": "The UPS Store",
          "brand:wikidata": "Q7771029",
          "brand:wikipedia": "en:The UPS Store",
          "name": "The UPS Store",
          "operator": "The UPS Store",
          "operator:type": "private",
          "operator:wikidata": "Q7771029",
          "operator:wikipedia": "en:The UPS Store",
          "shop": "copyshop",
          "short_name": "UPS"
        },
        "geometry": {
          "type": "Point",
          "coordinates": [
            -87.6996151,
            42.0336839
          ]
        },
        "id": "node/2294252971"
      },
      {
        "type": "Feature",
        "properties": {
          "@id": "node/2295171959",
          "addr:city": "Evanston",
          "addr:housenumber": "1136",
          "addr:postcode": "60202",
          "addr:street": "Wesley Avenue",
          "addr:street:name": "Wesley",
          "addr:street:type": "Avenue",
          "amenity": "place_of_worship",
          "denomination": "united_church_of_christ",
          "name": "St John's United Church of Christ.",
          "religion": "christian"
        },
        "geometry": {
          "type": "Point",
          "coordinates": [
            -87.6924271,
            42.0390559
          ]
        },
        "id": "node/2295171959"
      },
      {
        "type": "Feature",
        "properties": {
          "@id": "node/2295172433",
          "addr:city": "Evanston",
          "addr:housenumber": "1164",
          "addr:postcode": "60202",
          "addr:state": "IL",
          "addr:street": "Dodge Avenue",
          "addr:street:name": "Dodge",
          "addr:street:type": "Avenue",
          "amenity": "restaurant",
          "cuisine": "jamaican",
          "name": "Kingston Grill",
          "website": "http://places.singleplatform.com/kingston-grill-restaurant-and-catering/menu"
        },
        "geometry": {
          "type": "Point",
          "coordinates": [
            -87.6995956,
            42.040365
          ]
        },
        "id": "node/2295172433"
      },
      {
        "type": "Feature",
        "properties": {
          "@id": "node/2295172434",
          "addr:city": "Evanston",
          "addr:housenumber": "1168",
          "addr:postcode": "60202",
          "addr:state": "IL",
          "addr:street": "Dodge Avenue",
          "addr:street:name": "Dodge",
          "addr:street:type": "Avenue",
          "amenity": "fast_food",
          "brand": "Rosati's",
          "brand:wikidata": "Q65052579",
          "brand:wikipedia": "en:Rosati's Authentic Chicago Pizza",
          "cuisine": "pizza",
          "name": "Rosati's",
          "official_name": "Rosati's Authentic Chicago Pizza",
          "takeaway": "yes"
        },
        "geometry": {
          "type": "Point",
          "coordinates": [
            -87.6995948,
            42.0404427
          ]
        },
        "id": "node/2295172434"
      },
      {
        "type": "Feature",
        "properties": {
          "@id": "node/2295172577",
          "addr:city": "Evanston",
          "addr:housenumber": "1208",
          "addr:postcode": "60202",
          "addr:state": "IL",
          "addr:street": "Ashland Avenue",
          "addr:street:name": "Ashland",
          "addr:street:type": "Avenue",
          "amenity": "place_of_worship",
          "name": "Asenchen of Our Lord",
          "religion": "christian"
        },
        "geometry": {
          "type": "Point",
          "coordinates": [
            -87.6939184,
            42.03974
          ]
        },
        "id": "node/2295172577"
      },
      {
        "type": "Feature",
        "properties": {
          "@id": "node/2295173504",
          "addr:city": "Evanston",
          "addr:housenumber": "1830",
          "addr:postcode": "60202",
          "addr:state": "IL",
          "addr:street": "Dempster Street",
          "addr:street:name": "Dempster",
          "addr:street:type": "Street",
          "amenity": "money_transfer",
          "brand": "Western Union",
          "brand:wikidata": "Q861042",
          "brand:wikipedia": "en:Western Union",
          "name": "Western Union"
        },
        "geometry": {
          "type": "Point",
          "coordinates": [
            -87.6989545,
            42.0408127
          ]
        },
        "id": "node/2295173504"
      },
      {
        "type": "Feature",
        "properties": {
          "@id": "node/2295173506",
          "addr:city": "Evanston",
          "addr:housenumber": "1900",
          "addr:postcode": "60202",
          "addr:state": "IL",
          "addr:street": "Dempster Street",
          "addr:street:name": "Dempster",
          "addr:street:type": "Street",
          "amenity": "fast_food",
          "brand": "Subway",
          "brand:wikidata": "Q244457",
          "brand:wikipedia": "en:Subway (restaurant)",
          "cuisine": "sandwich",
          "name": "Subway",
          "takeaway": "yes"
        },
        "geometry": {
          "type": "Point",
          "coordinates": [
            -87.6996179,
            42.0406383
          ]
        },
        "id": "node/2295173506"
      },
      {
        "type": "Feature",
        "properties": {
          "@id": "node/2295173528",
          "addr:city": "Evanston",
          "addr:housenumber": "1934",
          "addr:postcode": "60202",
          "addr:state": "IL",
          "addr:street": "Dempster Street",
          "addr:street:name": "Dempster",
          "addr:street:type": "Street",
          "amenity": "theatre",
          "name": "Dance Center Evanston"
        },
        "geometry": {
          "type": "Point",
          "coordinates": [
            -87.7011624,
            42.0398669
          ]
        },
        "id": "node/2295173528"
      },
      {
        "type": "Feature",
        "properties": {
          "@id": "node/2295173537",
          "addr:city": "Evanston",
          "addr:housenumber": "1946",
          "addr:postcode": "60202",
          "addr:state": "IL",
          "addr:street": "Dempster Street",
          "addr:street:name": "Dempster",
          "addr:street:type": "Street",
          "amenity": "clinic",
          "branch": "Captain James A. Lovell Federal Health Care Center",
          "brand": "VA",
          "brand:wikidata": "Q6580225",
          "brand:wikipedia": "en:Veterans Health Administration",
          "healthcare": "clinic",
          "healthcare:for": "veterans",
          "name": "Captain James A. Lovell Federal Health Care Center",
          "operator": "VA",
          "operator:type": "government",
          "operator:wikidata": "Q6580225",
          "operator:wikipedia": "en:Veterans Health Administration",
          "short_name": "VA"
        },
        "geometry": {
          "type": "Point",
          "coordinates": [
            -87.7012292,
            42.0400114
          ]
        },
        "id": "node/2295173537"
      },
      {
        "type": "Feature",
        "properties": {
          "@id": "node/2295173539",
          "addr:city": "Evanston",
          "addr:housenumber": "1950",
          "addr:postcode": "60202",
          "addr:state": "IL",
          "addr:street": "Dempster Street",
          "addr:street:name": "Dempster",
          "addr:street:type": "Street",
          "amenity": "clinic",
          "healthcare": "clinic",
          "name": "Traisman Pediatric"
        },
        "geometry": {
          "type": "Point",
          "coordinates": [
            -87.7011534,
            42.0401835
          ]
        },
        "id": "node/2295173539"
      },
      {
        "type": "Feature",
        "properties": {
          "@id": "node/2295173543",
          "addr:city": "Evanston",
          "addr:housenumber": "1956",
          "addr:postcode": "60202",
          "addr:state": "IL",
          "addr:street": "Dempster Street",
          "addr:street:name": "Dempster",
          "addr:street:type": "Street",
          "amenity": "clinic",
          "healthcare": "clinic",
          "name": "Chiro-one Wellness Center"
        },
        "geometry": {
          "type": "Point",
          "coordinates": [
            -87.7010348,
            42.040358
          ]
        },
        "id": "node/2295173543"
      },
      {
        "type": "Feature",
        "properties": {
          "@id": "node/2295173550",
          "addr:city": "Evanston",
          "addr:housenumber": "1964",
          "addr:postcode": "60202",
          "addr:state": "IL",
          "addr:street": "Dempster Street",
          "addr:street:name": "Dempster",
          "addr:street:type": "Street",
          "amenity": "dentist",
          "healthcare": "dentist",
          "name": "Dental Arts Specialists"
        },
        "geometry": {
          "type": "Point",
          "coordinates": [
            -87.700843,
            42.0407083
          ]
        },
        "id": "node/2295173550"
      },
      {
        "type": "Feature",
        "properties": {
          "@id": "node/2295218569",
          "addr:city": "Evanston",
          "addr:housenumber": "1311",
          "addr:postcode": "60201",
          "addr:state": "IL",
          "addr:street": "Sherman Place",
          "addr:street:name": "Sherman",
          "addr:street:type": "Place",
          "amenity": "music_school",
          "brand": "School of Rock",
          "brand:wikidata": "Q7756376",
          "brand:wikipedia": "en:School of Rock (company)",
          "name": "School of Rock"
        },
        "geometry": {
          "type": "Point",
          "coordinates": [
            -87.681276,
            42.0416511
          ]
        },
        "id": "node/2295218569"
      },
      {
        "type": "Feature",
        "properties": {
          "@id": "node/2295219499",
          "addr:city": "Evanston",
          "addr:housenumber": "1968",
          "addr:postcode": "60202",
          "addr:state": "IL",
          "addr:street": "Dempster Street",
          "addr:street:name": "Dempster",
          "addr:street:type": "Street",
          "amenity": "restaurant",
          "cuisine": "pizza",
          "name": "Panino's Pizzeria",
          "phone": "847-475-6200",
          "takeaway": "only",
          "website": "http://paninospizzeria.com/"
        },
        "geometry": {
          "type": "Point",
          "coordinates": [
            -87.7007586,
            42.0409052
          ]
        },
        "id": "node/2295219499"
      },
      {
        "type": "Feature",
        "properties": {
          "@id": "node/2295219861",
          "addr:city": "Evanston",
          "addr:housenumber": "615",
          "addr:postcode": "60201",
          "addr:street": "Dempster Street",
          "addr:street:name": "Dempster",
          "addr:street:type": "Street",
          "amenity": "restaurant",
          "cuisine": "bagel",
          "name": "Bagel Art",
          "opening_hours": "Mo-Sa 06:30-17:00; Su 07:30-16:00",
          "phone": "(847) 864-8700",
          "website": "http://www.bagelartevanston.com/"
        },
        "geometry": {
          "type": "Point",
          "coordinates": [
            -87.6812729,
            42.0413224
          ]
        },
        "id": "node/2295219861"
      },
      {
        "type": "Feature",
        "properties": {
          "@id": "node/2295224929",
          "addr:city": "Evanston",
          "addr:housenumber": "1001",
          "addr:postcode": "60201",
          "addr:state": "IL",
          "addr:street": "Davis Street",
          "addr:street:name": "Davis",
          "addr:street:type": "Street",
          "amenity": "fast_food",
          "cuisine": "pizza",
          "delivery": "yes",
          "drive_through": "no",
          "name": "Gigio's Pizza",
          "takeaway": "yes",
          "website": "http://www.gigiostogo.com/"
        },
        "geometry": {
          "type": "Point",
          "coordinates": [
            -87.6851388,
            42.0471985
          ]
        },
        "id": "node/2295224929"
      },
      {
        "type": "Feature",
        "properties": {
          "@id": "node/2295224934",
          "addr:city": "Evanston",
          "addr:housenumber": "1007",
          "addr:postcode": "60201",
          "addr:state": "IL",
          "addr:street": "Davis Street",
          "addr:street:name": "Davis",
          "addr:street:type": "Street",
          "amenity": "restaurant",
          "cuisine": "ramen;asian",
          "name": "Table to Stix Ramen",
          "name:en": "Table to Stix Ramen",
          "phone": "+1-847-859-6847",
          "website": "tabletostix.com"
        },
        "geometry": {
          "type": "Point",
          "coordinates": [
            -87.6853766,
            42.0472052
          ]
        },
        "id": "node/2295224934"
      },
      {
        "type": "Feature",
        "properties": {
          "@id": "node/2295224937",
          "addr:city": "Evanston",
          "addr:housenumber": "1010",
          "addr:postcode": "60201",
          "addr:street": "Church Street",
          "addr:street:name": "Church",
          "addr:street:type": "Street",
          "amenity": "restaurant",
          "cuisine": "mexican",
          "name": "That Little Mexican Cafe"
        },
        "geometry": {
          "type": "Point",
          "coordinates": [
            -87.6857668,
            42.0483298
          ]
        },
        "id": "node/2295224937"
      },
      {
        "type": "Feature",
        "properties": {
          "@id": "node/2295224940",
          "addr:city": "Evanston",
          "addr:housenumber": "1012",
          "addr:postcode": "60201",
          "addr:street": "Church Street",
          "addr:street:name": "Church",
          "addr:street:type": "Street",
          "amenity": "bar",
          "name": "27 Live"
        },
        "geometry": {
          "type": "Point",
          "coordinates": [
            -87.6859391,
            42.0482977
          ]
        },
        "id": "node/2295224940"
      },
      {
        "type": "Feature",
        "properties": {
          "@id": "node/2295224942",
          "addr:city": "Evanston",
          "addr:housenumber": "1014",
          "addr:postcode": "60201",
          "addr:street": "Church Street",
          "addr:street:name": "Church",
          "addr:street:type": "Street",
          "amenity": "restaurant",
          "name": "27 Live",
          "note": "Two addresses but different businesses. One a bar/music venue one a restaurant."
        },
        "geometry": {
          "type": "Point",
          "coordinates": [
            -87.6860385,
            42.0482965
          ]
        },
        "id": "node/2295224942"
      },
      {
        "type": "Feature",
        "properties": {
          "@id": "node/2295224945",
          "addr:city": "Evanston",
          "addr:housenumber": "1016",
          "addr:postcode": "60201",
          "addr:street": "Church Street",
          "addr:street:name": "Church",
          "addr:street:type": "Street",
          "amenity": "restaurant",
          "cuisine": "thai",
          "name": "Thai Sookdee",
          "phone": "847-866-8012",
          "website": "http://thaisookdee.com/"
        },
        "geometry": {
          "type": "Point",
          "coordinates": [
            -87.6861617,
            42.0482962
          ]
        },
        "id": "node/2295224945"
      },
      {
        "type": "Feature",
        "properties": {
          "@id": "node/2295224948",
          "addr:city": "Evanston",
          "addr:housenumber": "1018",
          "addr:postcode": "60201",
          "addr:state": "IL",
          "addr:street": "Davis Street",
          "addr:street:name": "Davis",
          "addr:street:type": "Street",
          "amenity": "restaurant",
          "cuisine": "chinese",
          "delivery": "yes",
          "name": "CoZy Noodles & Rice",
          "outdoor_seating": "yes",
          "phone": "+1-847-733-0101",
          "website": "http://cozyevanston.com/"
        },
        "geometry": {
          "type": "Point",
          "coordinates": [
            -87.6859947,
            42.0468716
          ]
        },
        "id": "node/2295224948"
      },
      {
        "type": "Feature",
        "properties": {
          "@id": "node/2295224955",
          "addr:city": "Evanston",
          "addr:housenumber": "1033",
          "addr:postcode": "60201",
          "addr:state": "IL",
          "addr:street": "Davis Street",
          "addr:street:name": "Davis",
          "addr:street:type": "Street",
          "amenity": "school",
          "name": "One River School of Art and Design"
        },
        "geometry": {
          "type": "Point",
          "coordinates": [
            -87.6866195,
            42.047241
          ]
        },
        "id": "node/2295224955"
      },
      {
        "type": "Feature",
        "properties": {
          "@id": "node/2295224957",
          "addr:city": "Evanston",
          "addr:housenumber": "1100",
          "addr:postcode": "60201",
          "addr:state": "IL",
          "addr:street": "Davis Street",
          "addr:street:name": "Davis",
          "addr:street:type": "Street",
          "amenity": "cafe",
          "cuisine": "cafe",
          "name": "Berry Pike"
        },
        "geometry": {
          "type": "Point",
          "coordinates": [
            -87.6870682,
            42.0469196
          ]
        },
        "id": "node/2295224957"
      },
      {
        "type": "Feature",
        "properties": {
          "@id": "node/2295224996",
          "addr:city": "Evanston",
          "addr:housenumber": "1201",
          "addr:postcode": "60201",
          "addr:state": "IL",
          "addr:street": "Davis Street",
          "addr:street:name": "Davis",
          "addr:street:type": "Street",
          "amenity": "police",
          "name": "Northwestern University Police Department"
        },
        "geometry": {
          "type": "Point",
          "coordinates": [
            -87.6892883,
            42.047594
          ]
        },
        "id": "node/2295224996"
      },
      {
        "type": "Feature",
        "properties": {
          "@id": "node/2295225356",
          "addr:city": "Evanston",
          "addr:housenumber": "1512",
          "addr:postcode": "60201",
          "addr:state": "IL",
          "addr:street": "Sherman Avenue",
          "addr:street:name": "Sherman",
          "addr:street:type": "Avenue",
          "amenity": "restaurant",
          "cuisine": "crepe",
          "name": "Creperie Saint-Germain"
        },
        "geometry": {
          "type": "Point",
          "coordinates": [
            -87.6821135,
            42.0451697
          ]
        },
        "id": "node/2295225356"
      },
      {
        "type": "Feature",
        "properties": {
          "@id": "node/2295225409",
          "addr:city": "Evanston",
          "addr:housenumber": "1514",
          "addr:postcode": "60201",
          "addr:state": "IL",
          "addr:street": "Sherman Avenue",
          "addr:street:name": "Sherman",
          "addr:street:type": "Avenue",
          "amenity": "restaurant",
          "cuisine": "sushi",
          "name": "Kansaku"
        },
        "geometry": {
          "type": "Point",
          "coordinates": [
            -87.6821193,
            42.0452122
          ]
        },
        "id": "node/2295225409"
      },
      {
        "type": "Feature",
        "properties": {
          "@id": "node/2295225527",
          "addr:city": "Evanston",
          "addr:housenumber": "1551",
          "addr:postcode": "60201",
          "addr:street": "Sherman Avenue",
          "addr:street:name": "Sherman",
          "addr:street:type": "Avenue",
          "amenity": "fast_food",
          "brand": "Subway",
          "brand:wikidata": "Q244457",
          "brand:wikipedia": "en:Subway (restaurant)",
          "cuisine": "sandwich",
          "name": "Subway",
          "takeaway": "yes"
        },
        "geometry": {
          "type": "Point",
          "coordinates": [
            -87.6816958,
            42.0455767
          ]
        },
        "id": "node/2295225527"
      },
      {
        "type": "Feature",
        "properties": {
          "@id": "node/2295225572",
          "addr:city": "Evanston",
          "addr:housenumber": "1555",
          "addr:postcode": "60201",
          "addr:state": "IL",
          "addr:street": "Sherman Avenue",
          "addr:street:name": "Sherman",
          "addr:street:type": "Avenue",
          "amenity": "post_office",
          "brand": "The UPS Store",
          "brand:wikidata": "Q7771029",
          "brand:wikipedia": "en:The UPS Store",
          "name": "The UPS Store",
          "operator": "The UPS Store",
          "operator:type": "private",
          "operator:wikidata": "Q7771029",
          "operator:wikipedia": "en:The UPS Store",
          "shop": "copyshop",
          "short_name": "UPS"
        },
        "geometry": {
          "type": "Point",
          "coordinates": [
            -87.681695,
            42.0456529
          ]
        },
        "id": "node/2295225572"
      },
      {
        "type": "Feature",
        "properties": {
          "@id": "node/2295225602",
          "addr:city": "Evanston",
          "addr:housenumber": "1557",
          "addr:postcode": "60201",
          "addr:street": "Sherman Avenue",
          "addr:street:name": "Sherman",
          "addr:street:type": "Avenue",
          "amenity": "restaurant",
          "name": "Pete Miller's Steakhouse",
          "website": "https://www.petemillers.com/"
        },
        "geometry": {
          "type": "Point",
          "coordinates": [
            -87.6816468,
            42.0457706
          ]
        },
        "id": "node/2295225602"
      },
      {
        "type": "Feature",
        "properties": {
          "@id": "node/2295226132",
          "addr:city": "Evanston",
          "addr:housenumber": "1611",
          "addr:postcode": "60201",
          "addr:street": "Chicago Avenue",
          "addr:street:name": "Chicago",
          "addr:street:type": "Avenue",
          "amenity": "restaurant",
          "name": "The Crystal Residence"
        },
        "geometry": {
          "type": "Point",
          "coordinates": [
            -87.6792065,
            42.0465807
          ]
        },
        "id": "node/2295226132"
      },
      {
        "type": "Feature",
        "properties": {
          "@id": "node/2295226156",
          "addr:city": "Evanston",
          "addr:housenumber": "1611",
          "addr:postcode": "60201",
          "addr:state": "IL",
          "addr:street": "Sherman Avenue",
          "addr:street:name": "Sherman",
          "addr:street:type": "Avenue",
          "amenity": "ice_cream",
          "brand": "Cold Stone Creamery",
          "brand:wikidata": "Q1094923",
          "brand:wikipedia": "en:Cold Stone Creamery",
          "cuisine": "ice_cream",
          "name": "Cold Stone Creamery",
          "wheelchair": "yes"
        },
        "geometry": {
          "type": "Point",
          "coordinates": [
            -87.681601,
            42.0475248
          ]
        },
        "id": "node/2295226156"
      },
      {
        "type": "Feature",
        "properties": {
          "@id": "node/2295226218",
          "addr:city": "Evanston",
          "addr:housenumber": "1615",
          "addr:postcode": "60201",
          "addr:street": "Oak Avenue",
          "addr:street:name": "Oak",
          "addr:street:type": "Avenue",
          "amenity": "pub",
          "microbrewery": "yes",
          "name": "Smylie Brothers Brewery"
        },
        "geometry": {
          "type": "Point",
          "coordinates": [
            -87.6864692,
            42.0476547
          ]
        },
        "id": "node/2295226218"
      },
      {
        "type": "Feature",
        "properties": {
          "@id": "node/2295226257",
          "addr:city": "Evanston",
          "addr:housenumber": "1620",
          "addr:postcode": "60201",
          "addr:state": "IL",
          "addr:street": "Orrington Avenue",
          "addr:street:name": "Orrington",
          "addr:street:type": "Avenue",
          "amenity": "restaurant",
          "construction": "yes",
          "name": "La Macchina Cafe"
        },
        "geometry": {
          "type": "Point",
          "coordinates": [
            -87.6813808,
            42.0475607
          ]
        },
        "id": "node/2295226257"
      },
      {
        "type": "Feature",
        "properties": {
          "@id": "node/2295226261",
          "addr:city": "Evanston",
          "addr:housenumber": "1621",
          "addr:postcode": "60201",
          "addr:street": "Chicago Avenue",
          "addr:street:name": "Chicago",
          "addr:street:type": "Avenue",
          "amenity": "cafe",
          "name": "Kafein"
        },
        "geometry": {
          "type": "Point",
          "coordinates": [
            -87.6790211,
            42.0469544
          ]
        },
        "id": "node/2295226261"
      },
      {
        "type": "Feature",
        "properties": {
          "@id": "node/2295226275",
          "addr:city": "Evanston",
          "addr:housenumber": "1622",
          "addr:postcode": "60201",
          "addr:state": "IL",
          "addr:street": "Sherman Avenue",
          "addr:street:name": "Sherman",
          "addr:street:type": "Avenue",
          "amenity": "fast_food",
          "cuisine": "burger",
          "drive_through": "no",
          "name": "Epic Burger",
          "planned": "yes"
        },
        "geometry": {
          "type": "Point",
          "coordinates": [
            -87.6821232,
            42.0479597
          ]
        },
        "id": "node/2295226275"
      },
      {
        "type": "Feature",
        "properties": {
          "@id": "node/2295226286",
          "addr:city": "Evanston",
          "addr:housenumber": "1625",
          "addr:postcode": "60201",
          "addr:street": "Chicago Avenue",
          "addr:street:name": "Chicago",
          "addr:street:type": "Avenue",
          "amenity": "restaurant",
          "name": "La Cocinita"
        },
        "geometry": {
          "type": "Point",
          "coordinates": [
            -87.6789663,
            42.047065
          ]
        },
        "id": "node/2295226286"
      },
      {
        "type": "Feature",
        "properties": {
          "@id": "node/2295226310",
          "addr:city": "Evanston",
          "addr:housenumber": "1629",
          "addr:postcode": "60201",
          "addr:state": "IL",
          "addr:street": "Orrington Avenue",
          "addr:street:name": "Orrington",
          "addr:street:type": "Avenue",
          "amenity": "restaurant",
          "cuisine": "mediterranean",
          "name": "Naf Naf Grill",
          "wheelchair": "yes"
        },
        "geometry": {
          "type": "Point",
          "coordinates": [
            -87.680764,
            42.0476324
          ]
        },
        "id": "node/2295226310"
      },
      {
        "type": "Feature",
        "properties": {
          "@id": "node/2295226312",
          "addr:city": "Evanston",
          "addr:housenumber": "1629",
          "addr:postcode": "60201",
          "addr:state": "IL",
          "addr:street": "Sherman Avenue",
          "addr:street:name": "Sherman",
          "addr:street:type": "Avenue",
          "amenity": "kindergarten",
          "brand": "Bright Horizons",
          "brand:wikidata": "Q4967421",
          "brand:wikipedia": "en:Bright Horizons",
          "fee": "yes",
          "isced:level": "0",
          "name": "Bright Horizons",
          "nursery": "yes",
          "phone": "847-491-9032",
          "preschool": "yes"
        },
        "geometry": {
          "type": "Point",
          "coordinates": [
            -87.6805032,
            42.04775
          ]
        },
        "id": "node/2295226312"
      },
      {
        "type": "Feature",
        "properties": {
          "@id": "node/2295226320",
          "addr:city": "Evanston",
          "addr:housenumber": "1631",
          "addr:postcode": "60201",
          "addr:state": "IL",
          "addr:street": "Chicago Avenue",
          "addr:street:name": "Chicago",
          "addr:street:type": "Avenue",
          "amenity": "restaurant",
          "cuisine": "american",
          "name": "Found Kitchen and Social House",
          "phone": "+1-847-868-8945"
        },
        "geometry": {
          "type": "Point",
          "coordinates": [
            -87.6788968,
            42.0472141
          ]
        },
        "id": "node/2295226320"
      },
      {
        "type": "Feature",
        "properties": {
          "@id": "node/2295226331",
          "addr:city": "Evanston",
          "addr:housenumber": "1632",
          "addr:postcode": "60201",
          "addr:street": "Maple Avenue",
          "addr:street:name": "Maple",
          "addr:street:type": "Avenue",
          "amenity": "dentist",
          "healthcare": "dentist",
          "name": "Radiant Smile",
          "phone": "847-328-8573"
        },
        "geometry": {
          "type": "Point",
          "coordinates": [
            -87.6853662,
            42.0479641
          ]
        },
        "id": "node/2295226331"
      },
      {
        "type": "Feature",
        "properties": {
          "@id": "node/2295226337",
          "addr:city": "Evanston",
          "addr:housenumber": "1633",
          "addr:postcode": "60201",
          "addr:street": "Chicago Avenue",
          "addr:street:name": "Chicago",
          "addr:street:type": "Avenue",
          "amenity": "bank",
          "atm": "yes",
          "brand": "PNC Bank",
          "brand:wikidata": "Q38928",
          "brand:wikipedia": "en:PNC Financial Services",
          "drive_through": "no",
          "name": "PNC Bank"
        },
        "geometry": {
          "type": "Point",
          "coordinates": [
            -87.6788653,
            42.0472789
          ]
        },
        "id": "node/2295226337"
      },
      {
        "type": "Feature",
        "properties": {
          "@id": "node/2295226344",
          "addr:city": "Evanston",
          "addr:housenumber": "1633",
          "addr:postcode": "60201",
          "addr:street": "Orrington Avenue",
          "addr:street:name": "Orrington",
          "addr:street:type": "Avenue",
          "amenity": "restaurant",
          "cuisine": "thai",
          "name": "Lao Sze Chuan"
        },
        "geometry": {
          "type": "Point",
          "coordinates": [
            -87.6807395,
            42.0477928
          ]
        },
        "id": "node/2295226344"
      },
      {
        "type": "Feature",
        "properties": {
          "@id": "node/2295226347",
          "addr:city": "Evanston",
          "addr:housenumber": "1634",
          "addr:postcode": "60201",
          "addr:street": "Orrington Avenue",
          "addr:street:name": "Orrington",
          "addr:street:type": "Avenue",
          "amenity": "restaurant",
          "name": "Soulwich"
        },
        "geometry": {
          "type": "Point",
          "coordinates": [
            -87.6811964,
            42.0479314
          ]
        },
        "id": "node/2295226347"
      },
      {
        "type": "Feature",
        "properties": {
          "@id": "node/2295226392",
          "addr:city": "Evanston",
          "addr:housenumber": "1638",
          "addr:postcode": "60201",
          "addr:street": "Maple Avenue",
          "addr:street:name": "Maple",
          "addr:street:type": "Avenue",
          "amenity": "bank",
          "atm": "yes",
          "brand": "BMO Harris Bank",
          "brand:wikidata": "Q4835981",
          "brand:wikipedia": "en:BMO Harris Bank",
          "name": "BMO Harris Bank",
          "opening_hours": "Mo-Th 09:00-17:00; Fr 09:00-18:00; Sa 09:00-13:00"
        },
        "geometry": {
          "type": "Point",
          "coordinates": [
            -87.685473,
            42.0481082
          ]
        },
        "id": "node/2295226392"
      },
      {
        "type": "Feature",
        "properties": {
          "@id": "node/2295226397",
          "addr:city": "Evanston",
          "addr:housenumber": "1639",
          "addr:postcode": "60201",
          "addr:street": "Orrington Avenue",
          "addr:street:name": "Orrington",
          "addr:street:type": "Avenue",
          "amenity": "pub",
          "cuisine": "american",
          "name": "JT's Bar & Grill"
        },
        "geometry": {
          "type": "Point",
          "coordinates": [
            -87.6806632,
            42.0479444
          ]
        },
        "id": "node/2295226397"
      },
      {
        "type": "Feature",
        "properties": {
          "@id": "node/2295226430",
          "addr:city": "Evanston",
          "addr:postcode": "60201",
          "addr:street": "Sherman Avenue",
          "addr:street:name": "Sherman",
          "addr:street:type": "Avenue",
          "amenity": "theatre",
          "name": "Music Institute of Chicago"
        },
        "geometry": {
          "type": "Point",
          "coordinates": [
            -87.6820729,
            42.0486608
          ]
        },
        "id": "node/2295226430"
      },
      {
        "type": "Feature",
        "properties": {
          "@id": "node/2295226439",
          "addr:city": "Evanston",
          "addr:housenumber": "1705",
          "addr:postcode": "60201",
          "addr:street": "Sherman Avenue",
          "addr:street:name": "Sherman",
          "addr:street:type": "Avenue",
          "amenity": "bank",
          "name": "First Northern Credit Union"
        },
        "geometry": {
          "type": "Point",
          "coordinates": [
            -87.6815761,
            42.0487141
          ]
        },
        "id": "node/2295226439"
      },
      {
        "type": "Feature",
        "properties": {
          "@id": "node/2295226523",
          "addr:city": "Evanston",
          "addr:housenumber": "1819",
          "addr:postcode": "60201",
          "addr:state": "IL",
          "addr:street": "Church Street",
          "addr:street:name": "Church",
          "addr:street:type": "Street",
          "amenity": "dentist",
          "healthcare": "dentist",
          "name": "Premier Dental Care"
        },
        "geometry": {
          "type": "Point",
          "coordinates": [
            -87.6984517,
            42.0485079
          ]
        },
        "id": "node/2295226523"
      },
      {
        "type": "Feature",
        "properties": {
          "@id": "node/2295226648",
          "addr:city": "Evanston",
          "addr:housenumber": "526",
          "addr:postcode": "60201",
          "addr:street": "Davis Street",
          "addr:street:name": "Davis",
          "addr:street:type": "Street",
          "amenity": "restaurant",
          "cuisine": "sushi",
          "name": "Todoroki",
          "website": "www.mytodorokievanston.com/"
        },
        "geometry": {
          "type": "Point",
          "coordinates": [
            -87.6793386,
            42.0459535
          ]
        },
        "id": "node/2295226648"
      },
      {
        "type": "Feature",
        "properties": {
          "@id": "node/2295226649",
          "addr:city": "Evanston",
          "addr:housenumber": "527",
          "addr:postcode": "60201",
          "addr:street": "Davis Street",
          "addr:street:name": "Davis",
          "addr:street:type": "Street",
          "amenity": "restaurant",
          "name": "527 Cafe",
          "opening_hours": "Mo 11:00-14:00; Tu-Su 11:00-22:00",
          "phone": "847-332-2233"
        },
        "geometry": {
          "type": "Point",
          "coordinates": [
            -87.6790247,
            42.0461768
          ]
        },
        "id": "node/2295226649"
      },
      {
        "type": "Feature",
        "properties": {
          "@id": "node/2295226651",
          "addr:city": "Evanston",
          "addr:housenumber": "531",
          "addr:postcode": "60201",
          "addr:state": "IL",
          "addr:street": "Davis Street",
          "addr:street:name": "Davis",
          "addr:street:type": "Street",
          "amenity": "restaurant",
          "cuisine": "asian",
          "name": "Joy Yee Noodle",
          "outdoor_seating": "no",
          "phone": "+1-847-733-1900",
          "smoking": "no",
          "takeaway": "yes",
          "vacant": "yes"
        },
        "geometry": {
          "type": "Point",
          "coordinates": [
            -87.6791887,
            42.0462237
          ]
        },
        "id": "node/2295226651"
      },
      {
        "type": "Feature",
        "properties": {
          "@id": "node/2295226675",
          "addr:city": "Evanston",
          "addr:housenumber": "614",
          "addr:postcode": "60201",
          "addr:street": "Davis Street",
          "addr:street:name": "Davis",
          "addr:street:type": "Street",
          "amenity": "dance_theater",
          "name": "Giordano Dance School",
          "phone": "847-866-9442",
          "website": "https://www.giordanodance.org/"
        },
        "geometry": {
          "type": "Point",
          "coordinates": [
            -87.6805694,
            42.0462668
          ]
        },
        "id": "node/2295226675"
      },
      {
        "type": "Feature",
        "properties": {
          "@id": "node/2295226679",
          "addr:city": "Evanston",
          "addr:housenumber": "618 1/2",
          "addr:postcode": "60201",
          "addr:street": "Church Street",
          "addr:street:name": "Church",
          "addr:street:type": "Street",
          "amenity": "restaurant",
          "cuisine": "mexican",
          "name": "Aguas Tortas"
        },
        "geometry": {
          "type": "Point",
          "coordinates": [
            -87.6800271,
            42.047894
          ]
        },
        "id": "node/2295226679"
      },
      {
        "type": "Feature",
        "properties": {
          "@id": "node/2295226683",
          "addr:city": "Evanston",
          "addr:housenumber": "620",
          "addr:postcode": "60201",
          "addr:street": "Davis Street",
          "addr:street:name": "Davis",
          "addr:street:type": "Street",
          "amenity": "restaurant",
          "cuisine": "chinese",
          "delivery": "yes",
          "level": "0",
          "name": "Peppercorns Kitchen",
          "opening_hours": "Su-Th 11:00-21:30; Fr-Sa 11:00-22:30",
          "takeaway": "yes"
        },
        "geometry": {
          "type": "Point",
          "coordinates": [
            -87.6808472,
            42.0463406
          ]
        },
        "id": "node/2295226683"
      },
      {
        "type": "Feature",
        "properties": {
          "@id": "node/2295226699",
          "addr:city": "Evanston",
          "addr:housenumber": "640",
          "addr:postcode": "60201",
          "addr:street": "Church Street",
          "addr:street:name": "Church",
          "addr:street:type": "Street",
          "amenity": "restaurant",
          "cuisine": "sushi",
          "name": "Sashimi Sashimi"
        },
        "geometry": {
          "type": "Point",
          "coordinates": [
            -87.6806212,
            42.0480632
          ]
        },
        "id": "node/2295226699"
      },
      {
        "type": "Feature",
        "properties": {
          "@id": "node/2295226718",
          "addr:city": "Evanston",
          "addr:housenumber": "808",
          "addr:postcode": "60201",
          "addr:state": "IL",
          "addr:street": "Church Street",
          "addr:street:name": "Church",
          "addr:street:type": "Street",
          "amenity": "bank",
          "atm": "yes",
          "brand": "Fidelity Bank",
          "brand:wikidata": "Q1411292",
          "brand:wikipedia": "en:Fidelity Investments",
          "drive_through": "no",
          "name": "Fidelity Bank"
        },
        "geometry": {
          "type": "Point",
          "coordinates": [
            -87.6825755,
            42.0482964
          ]
        },
        "id": "node/2295226718"
      },
      {
        "type": "Feature",
        "properties": {
          "@id": "node/2295226719",
          "addr:city": "Evanston",
          "addr:housenumber": "808",
          "addr:postcode": "60201",
          "addr:street": "Davis Street",
          "addr:street:name": "Davis",
          "addr:street:type": "Street",
          "amenity": "salon",
          "name": "Salon Lotus"
        },
        "geometry": {
          "type": "Point",
          "coordinates": [
            -87.6823895,
            42.0467772
          ]
        },
        "id": "node/2295226719"
      },
      {
        "type": "Feature",
        "properties": {
          "@id": "node/2295226721",
          "addr:city": "Evanston",
          "addr:housenumber": "809",
          "addr:postcode": "60201",
          "addr:state": "IL",
          "addr:street": "Davis Street",
          "addr:street:name": "Davis",
          "addr:street:type": "Street",
          "amenity": "ice_cream",
          "cuisine": "ice_cream",
          "name": "Tutti Frutti"
        },
        "geometry": {
          "type": "Point",
          "coordinates": [
            -87.6826164,
            42.0471832
          ]
        },
        "id": "node/2295226721"
      },
      {
        "type": "Feature",
        "properties": {
          "@id": "node/2295226724",
          "addr:city": "Evanston",
          "addr:housenumber": "812",
          "addr:postcode": "60201",
          "addr:state": "IL",
          "addr:street": "Church Street",
          "addr:street:name": "Church",
          "addr:street:type": "Street",
          "amenity": "restaurant",
          "cuisine": "pizza",
          "name": "800 Degrees Pizzeria"
        },
        "geometry": {
          "type": "Point",
          "coordinates": [
            -87.6826898,
            42.048297
          ]
        },
        "id": "node/2295226724"
      },
      {
        "type": "Feature",
        "properties": {
          "@id": "node/2295226728",
          "addr:city": "Evanston",
          "addr:housenumber": "817",
          "addr:postcode": "60201",
          "addr:state": "IL",
          "addr:street": "Church Street",
          "addr:street:name": "Church",
          "addr:street:type": "Street",
          "amenity": "bank",
          "atm": "yes",
          "brand": "Citibank",
          "brand:wikidata": "Q857063",
          "brand:wikipedia": "en:Citibank",
          "drive_through": "no",
          "name": "Citibank",
          "short_name": "Citi"
        },
        "geometry": {
          "type": "Point",
          "coordinates": [
            -87.6826352,
            42.0486067
          ]
        },
        "id": "node/2295226728"
      },
      {
        "type": "Feature",
        "properties": {
          "@id": "node/2295226741",
          "addr:city": "Evanston",
          "addr:housenumber": "901",
          "addr:postcode": "60201",
          "addr:street": "Davis Street",
          "addr:street:name": "Davis",
          "addr:street:type": "Street",
          "amenity": "cafe",
          "name": "G.R.I.N.D. Cafe",
          "opening_hours": "Mo-Fr 06:00-11:00",
          "phone": "847-708-8654",
          "website": "http://grindcafebistro.com"
        },
        "geometry": {
          "type": "Point",
          "coordinates": [
            -87.6846974,
            42.0480513
          ]
        },
        "id": "node/2295226741"
      },
      {
        "type": "Feature",
        "properties": {
          "@id": "node/2295226745",
          "addr:city": "Evanston",
          "addr:housenumber": "915",
          "addr:postcode": "60201",
          "addr:street": "Davis Street",
          "addr:street:name": "Davis",
          "addr:street:type": "Street",
          "amenity": "restaurant",
          "name": "Chef's Station",
          "outdoor_seating": "yes",
          "phone": "847-570-9821",
          "website": "http://chefs-station.com/"
        },
        "geometry": {
          "type": "Point",
          "coordinates": [
            -87.684514,
            42.0477861
          ]
        },
        "id": "node/2295226745"
      },
      {
        "type": "Feature",
        "properties": {
          "@id": "node/2295244306",
          "addr:city": "Evanston",
          "addr:housenumber": "3200",
          "addr:postcode": "60201",
          "addr:state": "IL",
          "addr:street": "Grant Street",
          "addr:street:name": "Grant",
          "addr:street:type": "street",
          "amenity": "social_facility",
          "name": "Westminster Place",
          "social_facility": "group_home",
          "social_facility:for": "senior",
          "wheelchair": "yes"
        },
        "geometry": {
          "type": "Point",
          "coordinates": [
            -87.722373,
            42.0575064
          ]
        },
        "id": "node/2295244306"
      },
      {
        "type": "Feature",
        "properties": {
          "@id": "node/2295244343",
          "addr:city": "Evanston",
          "addr:housenumber": "2107",
          "addr:postcode": "60201",
          "addr:state": "IL",
          "addr:street": "Crawford Avenue",
          "addr:street:name": "Crawford",
          "addr:street:type": "Avenue",
          "amenity": "veterinary",
          "name": "Fox Animal Hospital",
          "website": "https://foxanimalhospital.com/"
        },
        "geometry": {
          "type": "Point",
          "coordinates": [
            -87.7270496,
            42.0557013
          ]
        },
        "id": "node/2295244343"
      },
      {
        "type": "Feature",
        "properties": {
          "@id": "node/2295246488",
          "addr:city": "Evanston",
          "addr:housenumber": "3200",
          "addr:postcode": "60201",
          "addr:state": "IL",
          "addr:street": "Grant Street",
          "addr:street:name": "Grant",
          "addr:street:type": "Street",
          "amenity": "social_facility",
          "name": "McGaw Care Center",
          "social_facility": "nursing_home",
          "social_facility:for": "senior"
        },
        "geometry": {
          "type": "Point",
          "coordinates": [
            -87.7242323,
            42.0577268
          ]
        },
        "id": "node/2295246488"
      },
      {
        "type": "Feature",
        "properties": {
          "@id": "node/2295247236",
          "addr:city": "Evanston",
          "addr:housenumber": "3333",
          "addr:postcode": "60201",
          "addr:state": "IL",
          "addr:street": "Culver Street",
          "addr:street:name": "Culver",
          "addr:street:type": "Street",
          "amenity": "kindergarten",
          "name": "Barbereaux School",
          "preschool": "yes"
        },
        "geometry": {
          "type": "Point",
          "coordinates": [
            -87.7269527,
            42.0638284
          ]
        },
        "id": "node/2295247236"
      },
      {
        "type": "Feature",
        "properties": {
          "@id": "node/2295247278",
          "addr:city": "Evanston",
          "addr:housenumber": "3434",
          "addr:postcode": "60201",
          "addr:state": "IL",
          "addr:street": "Central Street",
          "addr:street:name": "Central",
          "addr:street:type": "Street",
          "amenity": "place_of_worship",
          "name": "Unity on the North Shore Church",
          "religion": "christian",
          "source": "http://www.unityns.org/",
          "website": "https://www.unityns.org/"
        },
        "geometry": {
          "type": "Point",
          "coordinates": [
            -87.729128,
            42.0642688
          ]
        },
        "id": "node/2295247278"
      },
      {
        "type": "Feature",
        "properties": {
          "@id": "node/2295250149",
          "addr:city": "Evanston",
          "addr:housenumber": "2906",
          "addr:postcode": "60201",
          "addr:state": "IL",
          "addr:street": "Central Street",
          "addr:street:name": "Central",
          "addr:street:type": "Street",
          "amenity": "post_office",
          "brand": "The UPS Store",
          "brand:wikidata": "Q7771029",
          "brand:wikipedia": "en:The UPS Store",
          "name": "The UPS Store",
          "operator": "The UPS Store",
          "operator:type": "private",
          "operator:wikidata": "Q7771029",
          "operator:wikipedia": "en:The UPS Store",
          "shop": "copyshop",
          "short_name": "UPS"
        },
        "geometry": {
          "type": "Point",
          "coordinates": [
            -87.7149426,
            42.0643115
          ]
        },
        "id": "node/2295250149"
      },
      {
        "type": "Feature",
        "properties": {
          "@id": "node/2295252458",
          "addr:city": "Evanston",
          "addr:housenumber": "1921",
          "addr:postcode": "60201",
          "addr:state": "IL",
          "addr:street": "Central Street",
          "addr:street:name": "Central",
          "addr:street:type": "Street",
          "amenity": "restaurant",
          "name": "Prairie Joe's"
        },
        "geometry": {
          "type": "Point",
          "coordinates": [
            -87.699688,
            42.0644544
          ]
        },
        "id": "node/2295252458"
      },
      {
        "type": "Feature",
        "properties": {
          "@id": "node/2295252489",
          "addr:city": "Evanston",
          "addr:housenumber": "1931",
          "addr:postcode": "60201",
          "addr:street": "Central Street",
          "addr:street:name": "Central",
          "addr:street:type": "Street",
          "amenity": "restaurant",
          "name": "Pinto Kitchen"
        },
        "geometry": {
          "type": "Point",
          "coordinates": [
            -87.7003007,
            42.0644692
          ]
        },
        "id": "node/2295252489"
      },
      {
        "type": "Feature",
        "properties": {
          "@id": "node/2295252495",
          "addr:city": "Evanston",
          "addr:housenumber": "1936",
          "addr:postcode": "60201",
          "addr:street": "Central Street",
          "addr:street:name": "Central",
          "addr:street:type": "Street",
          "amenity": "place_of_worship",
          "denomination": "Christian Science",
          "name": "Christian Science Reading Room",
          "religion": "christian"
        },
        "geometry": {
          "type": "Point",
          "coordinates": [
            -87.7005387,
            42.0641829
          ]
        },
        "id": "node/2295252495"
      },
      {
        "type": "Feature",
        "properties": {
          "@id": "node/2295252500",
          "addr:city": "Evanston",
          "addr:housenumber": "1945",
          "addr:postcode": "60201",
          "addr:street": "Central Street",
          "addr:street:name": "Central",
          "addr:street:type": "Street",
          "amenity": "restaurant",
          "name": "Symphony's"
        },
        "geometry": {
          "type": "Point",
          "coordinates": [
            -87.7009577,
            42.0644761
          ]
        },
        "id": "node/2295252500"
      },
      {
        "type": "Feature",
        "properties": {
          "@id": "node/2295254507",
          "addr:city": "Evanston",
          "addr:housenumber": "2545",
          "addr:postcode": "60201",
          "addr:street": "Prairie Avenue",
          "addr:street:name": "Prairie",
          "addr:street:type": "Avenue",
          "amenity": "restaurant",
          "cuisine": "sushi",
          "name": "Coast",
          "phone": "847-328-2221"
        },
        "geometry": {
          "type": "Point",
          "coordinates": [
            -87.7003484,
            42.0639364
          ]
        },
        "id": "node/2295254507"
      },
      {
        "type": "Feature",
        "properties": {
          "@id": "node/2295254717",
          "addr:city": "Evanston",
          "addr:housenumber": "2636",
          "addr:postcode": "60201",
          "addr:state": "IL",
          "addr:street": "Green Bay Road",
          "addr:street:name": "Green Bay",
          "addr:street:type": "Road",
          "amenity": "car_rental",
          "brand": "Enterprise",
          "brand:wikidata": "Q17085454",
          "brand:wikipedia": "en:Enterprise Rent-A-Car",
          "name": "Enterprise",
          "official_name": "Enterprise Rent-A-Car"
        },
        "geometry": {
          "type": "Point",
          "coordinates": [
            -87.6999356,
            42.0654193
          ]
        },
        "id": "node/2295254717"
      },
      {
        "type": "Feature",
        "properties": {
          "@id": "node/2295261739",
          "addr:city": "Evanston",
          "addr:housenumber": "1623",
          "addr:postcode": "60201",
          "addr:street": "Simpson Street",
          "addr:street:name": "Simpson",
          "addr:street:type": "Street",
          "amenity": "restaurant",
          "name": "Pepperpot"
        },
        "geometry": {
          "type": "Point",
          "coordinates": [
            -87.6952914,
            42.0558703
          ]
        },
        "id": "node/2295261739"
      },
      {
        "type": "Feature",
        "properties": {
          "@id": "node/2295262876",
          "addr:city": "Evanston",
          "addr:housenumber": "815",
          "addr:postcode": "60201",
          "addr:street": "Noyes Street",
          "addr:street:name": "Noyes",
          "addr:street:type": "Street",
          "amenity": "restaurant",
          "cuisine": "pizza;italian",
          "name": "Dave's New Kitchen"
        },
        "geometry": {
          "type": "Point",
          "coordinates": [
            -87.6825324,
            42.0586017
          ]
        },
        "id": "node/2295262876"
      },
      {
        "type": "Feature",
        "properties": {
          "@id": "node/2295262921",
          "addr:city": "Evanston",
          "addr:housenumber": "824",
          "addr:postcode": "60201",
          "addr:street": "Noyes Street",
          "addr:street:name": "Noyes",
          "addr:street:type": "Street",
          "amenity": "restaurant",
          "name": "Stacked and Folded"
        },
        "geometry": {
          "type": "Point",
          "coordinates": [
            -87.6830616,
            42.0583145
          ]
        },
        "id": "node/2295262921"
      },
      {
        "type": "Feature",
        "properties": {
          "@id": "node/2295262990",
          "addr:city": "Evanston",
          "addr:housenumber": "914 1/2",
          "addr:postcode": "60201",
          "addr:street": "Noyes Street",
          "addr:street:name": "Noyes",
          "addr:street:type": "Street",
          "amenity": "restaurant",
          "name": "Tomate Fresh Kitchen",
          "vacant": "yes"
        },
        "geometry": {
          "type": "Point",
          "coordinates": [
            -87.6837623,
            42.0583126
          ]
        },
        "id": "node/2295262990"
      },
      {
        "type": "Feature",
        "properties": {
          "@id": "node/2295262991",
          "addr:city": "Evanston",
          "addr:housenumber": "914",
          "addr:postcode": "60201",
          "addr:street": "Noyes Street",
          "addr:street:name": "Noyes",
          "addr:street:type": "Street",
          "amenity": "restaurant",
          "name": "Al's Deli"
        },
        "geometry": {
          "type": "Point",
          "coordinates": [
            -87.6838267,
            42.0583134
          ]
        },
        "id": "node/2295262991"
      },
      {
        "type": "Feature",
        "properties": {
          "@id": "node/2295262999",
          "addr:city": "Evanston",
          "addr:housenumber": "922",
          "addr:postcode": "60201",
          "addr:state": "IL",
          "addr:street": "Noyes Street",
          "addr:street:name": "Noyes",
          "addr:street:type": "Street",
          "amenity": "cafe",
          "brand": "Coffee Lab",
          "brand:wikidata": "Q109568497",
          "cuisine": "coffee_shop",
          "name": "Coffee Lab",
          "phone": "+1-847-868-8033",
          "takeaway": "yes",
          "website": "https://www.bcbccoffeelab.com/"
        },
        "geometry": {
          "type": "Point",
          "coordinates": [
            -87.6837069,
            42.0583136
          ]
        },
        "id": "node/2295262999"
      },
      {
        "type": "Feature",
        "properties": {
          "@id": "node/2295263109",
          "addr:city": "Evanston",
          "addr:housenumber": "1115",
          "addr:postcode": "60201",
          "addr:state": "IL",
          "addr:street": "Emerson Street",
          "addr:street:name": "Emerson",
          "addr:street:type": "Street",
          "amenity": "restaurant",
          "cuisine": "wings",
          "name": "Wings Over...Evanston"
        },
        "geometry": {
          "type": "Point",
          "coordinates": [
            -87.6869982,
            42.0523097
          ]
        },
        "id": "node/2295263109"
      },
      {
        "type": "Feature",
        "properties": {
          "@id": "node/2295263137",
          "addr:city": "Evanston",
          "addr:housenumber": "1133",
          "addr:postcode": "60201",
          "addr:street": "Emerson Street",
          "addr:street:name": "Emerson",
          "addr:street:type": "Street",
          "amenity": "fast_food",
          "brand": "Subway",
          "brand:wikidata": "Q244457",
          "brand:wikipedia": "en:Subway (restaurant)",
          "cuisine": "sandwich",
          "name": "Subway",
          "takeaway": "yes"
        },
        "geometry": {
          "type": "Point",
          "coordinates": [
            -87.6875095,
            42.0526413
          ]
        },
        "id": "node/2295263137"
      },
      {
        "type": "Feature",
        "properties": {
          "@id": "node/2295263416",
          "addr:city": "Evanston",
          "addr:housenumber": "1726",
          "addr:postcode": "60201",
          "addr:street": "Sherman Avenue",
          "addr:street:name": "Sherman",
          "addr:street:type": "Avenue",
          "amenity": "restaurant",
          "name": "Olive Meditteranean Grill",
          "website": "http://eatomg.com/"
        },
        "geometry": {
          "type": "Point",
          "coordinates": [
            -87.6820735,
            42.0494158
          ]
        },
        "id": "node/2295263416"
      },
      {
        "type": "Feature",
        "properties": {
          "@id": "node/2295263435",
          "addr:city": "Evanston",
          "addr:housenumber": "1728",
          "addr:postcode": "60201",
          "addr:street": "Sherman Avenue",
          "addr:street:name": "Sherman",
          "addr:street:type": "Avenue",
          "amenity": "restaurant",
          "cuisine": "indian",
          "delivery": "yes",
          "name": "Mumbai Indian Grill",
          "opening_hours": "Mo-Th 11:30-22:00; Fr-Sa 11:30-22:30; Su 11:30-22:00",
          "phone": "847-859-2453"
        },
        "geometry": {
          "type": "Point",
          "coordinates": [
            -87.6820516,
            42.0495043
          ]
        },
        "id": "node/2295263435"
      },
      {
        "type": "Feature",
        "properties": {
          "@id": "node/2295263445",
          "addr:city": "Evanston",
          "addr:housenumber": "1729",
          "addr:postcode": "60201",
          "addr:street": "Sherman Avenue",
          "addr:street:name": "Sherman",
          "addr:street:type": "Avenue",
          "amenity": "fast_food",
          "brand": "Jimmy John's",
          "brand:wikidata": "Q1689380",
          "brand:wikipedia": "en:Jimmy John's",
          "cuisine": "sandwich",
          "name": "Jimmy John's",
          "official_name": "Jimmy John's Gourmet Sandwiches",
          "takeaway": "yes"
        },
        "geometry": {
          "type": "Point",
          "coordinates": [
            -87.681554,
            42.0494938
          ]
        },
        "id": "node/2295263445"
      },
      {
        "type": "Feature",
        "properties": {
          "@id": "node/2295263486",
          "addr:city": "Evanston",
          "addr:housenumber": "1734",
          "addr:postcode": "60201",
          "addr:street": "Sherman Avenue",
          "addr:street:name": "Sherman",
          "addr:street:type": "Avenue",
          "amenity": "cafe",
          "brand": "Starbucks",
          "brand:wikidata": "Q37158",
          "brand:wikipedia": "en:Starbucks",
          "cuisine": "coffee_shop",
          "internet_access": "wlan",
          "name": "Starbucks",
          "official_name": "Starbucks Coffee",
          "takeaway": "yes"
        },
        "geometry": {
          "type": "Point",
          "coordinates": [
            -87.6820389,
            42.0496962
          ]
        },
        "id": "node/2295263486"
      },
      {
        "type": "Feature",
        "properties": {
          "@id": "node/2295263494",
          "addr:city": "Evanston",
          "addr:housenumber": "1735",
          "addr:postcode": "60201",
          "addr:state": "IL",
          "addr:street": "Benson Avenue",
          "addr:street:name": "Benson",
          "addr:street:type": "Avenue",
          "amenity": "restaurant",
          "cuisine": "american",
          "name": "The Stained Glass",
          "phone": "+1-847-864-8600",
          "website": "http://thestainedglass.com/"
        },
        "geometry": {
          "type": "Point",
          "coordinates": [
            -87.6831066,
            42.0496262
          ]
        },
        "id": "node/2295263494"
      },
      {
        "type": "Feature",
        "properties": {
          "@id": "node/2295263531",
          "addr:city": "Evanston",
          "addr:housenumber": "1737",
          "addr:postcode": "60201",
          "addr:street": "Sherman Avenue",
          "addr:street:name": "Sherman",
          "addr:street:type": "Avenue",
          "amenity": "restaurant",
          "brand": "Blaze Pizza",
          "brand:wikidata": "Q23016666",
          "brand:wikipedia": "en:Blaze Pizza",
          "cuisine": "pizza",
          "name": "Blaze Pizza",
          "website": "http://www.blazepizza.com/locations/evanston/"
        },
        "geometry": {
          "type": "Point",
          "coordinates": [
            -87.6815515,
            42.0496245
          ]
        },
        "id": "node/2295263531"
      },
      {
        "type": "Feature",
        "properties": {
          "@id": "node/2295263555",
          "addr:city": "Evanston",
          "addr:housenumber": "1740",
          "addr:postcode": "60201",
          "addr:street": "Sherman Avenue",
          "addr:street:name": "Sherman",
          "addr:street:type": "Avenue",
          "amenity": "bank",
          "name": "Evanston Community Bank & Trust"
        },
        "geometry": {
          "type": "Point",
          "coordinates": [
            -87.682032,
            42.049779
          ]
        },
        "id": "node/2295263555"
      },
      {
        "type": "Feature",
        "properties": {
          "@id": "node/2295263675",
          "addr:city": "Evanston",
          "addr:housenumber": "1743",
          "addr:postcode": "60201",
          "addr:street": "Sherman Avenue",
          "addr:street:name": "Sherman",
          "addr:street:type": "Avenue",
          "amenity": "fast_food",
          "brand": "Taco Bell",
          "brand:wikidata": "Q752941",
          "brand:wikipedia": "en:Taco Bell",
          "cuisine": "tex-mex",
          "name": "Taco Bell",
          "takeaway": "yes"
        },
        "geometry": {
          "type": "Point",
          "coordinates": [
            -87.68155,
            42.0497743
          ]
        },
        "id": "node/2295263675"
      },
      {
        "type": "Feature",
        "properties": {
          "@id": "node/2295264992",
          "addr:city": "Evanston",
          "addr:housenumber": "1825",
          "addr:postcode": "60201",
          "addr:state": "IL",
          "addr:street": "Dodge Avenue",
          "addr:street:name": "Dodge",
          "addr:street:type": "Avenue",
          "amenity": "place_of_worship",
          "denomination": "seventh_day_adventist",
          "name": "Evanston Seventh-day Adventist Church",
          "religion": "christian",
          "website": "http://www.evanstonsda.org/"
        },
        "geometry": {
          "type": "Point",
          "coordinates": [
            -87.6985827,
            42.0512968
          ]
        },
        "id": "node/2295264992"
      },
      {
        "type": "Feature",
        "properties": {
          "@id": "node/2295265189",
          "addr:city": "Evanston",
          "addr:housenumber": "1840",
          "addr:postcode": "60201",
          "addr:state": "IL",
          "addr:street": "Oak Avenue",
          "addr:street:name": "Oak",
          "addr:street:type": "Avenue",
          "amenity": "restaurant",
          "name": "Prana Café"
        },
        "geometry": {
          "type": "Point",
          "coordinates": [
            -87.6867815,
            42.0512886
          ]
        },
        "id": "node/2295265189"
      },
      {
        "type": "Feature",
        "properties": {
          "@id": "node/2295265222",
          "addr:city": "Evanston",
          "addr:housenumber": "1901",
          "addr:postcode": "60201",
          "addr:state": "IL",
          "addr:street": "Green Bay Road",
          "addr:street:name": "Green Bay",
          "addr:street:type": "Road",
          "amenity": "car_rental",
          "brand": "Hertz",
          "brand:wikidata": "Q1543874",
          "brand:wikipedia": "en:The Hertz Corporation",
          "name": "Hertz"
        },
        "geometry": {
          "type": "Point",
          "coordinates": [
            -87.6889407,
            42.052686
          ]
        },
        "id": "node/2295265222"
      },
      {
        "type": "Feature",
        "properties": {
          "@id": "node/2295265764",
          "addr:city": "Evanston",
          "addr:housenumber": "2040",
          "addr:postcode": "60201",
          "addr:state": "IL",
          "addr:street": "Brown Avenue",
          "addr:street:name": "Brown",
          "addr:street:type": "Avenue",
          "amenity": "social_facility",
          "name": "Hill Arboreatum Apartments",
          "social_facility": "nursing_home",
          "social_facility:for": "senior",
          "wheelchair": "yes"
        },
        "geometry": {
          "type": "Point",
          "coordinates": [
            -87.701414,
            42.0550316
          ]
        },
        "id": "node/2295265764"
      },
      {
        "type": "Feature",
        "properties": {
          "@id": "node/2295265947",
          "addr:city": "Evanston",
          "addr:housenumber": "720",
          "addr:postcode": "60201",
          "addr:street": "Clark Street",
          "addr:street:name": "Clark",
          "addr:street:type": "Street",
          "amenity": "restaurant",
          "name": "Clarke's"
        },
        "geometry": {
          "type": "Point",
          "coordinates": [
            -87.6810699,
            42.0498289
          ]
        },
        "id": "node/2295265947"
      },
      {
        "type": "Feature",
        "properties": {
          "@id": "node/2295265948",
          "addr:city": "Evanston",
          "addr:housenumber": "720 1/2",
          "addr:postcode": "60201",
          "addr:street": "Clark Street",
          "addr:street:name": "Clark",
          "addr:street:type": "Street",
          "amenity": "restaurant",
          "cuisine": "korean",
          "name": "Koco Table"
        },
        "geometry": {
          "type": "Point",
          "coordinates": [
            -87.681182,
            42.0498225
          ]
        },
        "id": "node/2295265948"
      },
      {
        "type": "Feature",
        "properties": {
          "@id": "node/2295265958",
          "addr:city": "Evanston",
          "addr:housenumber": "724",
          "addr:postcode": "60201",
          "addr:state": "IL",
          "addr:street": "Clark Street",
          "addr:street:name": "Clark",
          "addr:street:type": "Street",
          "amenity": "fast_food",
          "brand": "Subway",
          "brand:wikidata": "Q244457",
          "brand:wikipedia": "en:Subway (restaurant)",
          "cuisine": "sandwich",
          "drive_through": "no",
          "name": "Subway",
          "opening_hours": "Mo-Fr 07:00-00:00; Sa 08:00-00:00; Su 09:00-00:00",
          "takeaway": "yes"
        },
        "geometry": {
          "type": "Point",
          "coordinates": [
            -87.681303,
            42.0498211
          ]
        },
        "id": "node/2295265958"
      },
      {
        "type": "Feature",
        "properties": {
          "@id": "node/2295265991",
          "addr:city": "Evanston",
          "addr:housenumber": "820",
          "addr:postcode": "60201",
          "addr:street": "Clark Street",
          "addr:street:name": "Clark",
          "addr:street:type": "Street",
          "amenity": "pub",
          "internet_access": "wlan",
          "name": "The Cellar",
          "phone": "847-864-8678"
        },
        "geometry": {
          "type": "Point",
          "coordinates": [
            -87.682947,
            42.0498438
          ]
        },
        "id": "node/2295265991"
      },
      {
        "type": "Feature",
        "properties": {
          "@id": "node/2385916041",
          "addr:city": "Cincinnati",
          "addr:housenumber": "3800",
          "addr:postcode": "45207",
          "addr:state": "OH",
          "addr:street": "Victory Parkway",
          "amenity": "cafe",
          "cuisine": "coffee_shop",
          "name": "Coffee Emporium",
          "phone": "+1-513-745-3786"
        },
        "geometry": {
          "type": "Point",
          "coordinates": [
            -84.4746463,
            39.149898
          ]
        },
        "id": "node/2385916041"
      },
      {
        "type": "Feature",
        "properties": {
          "@id": "node/2393339052",
          "amenity": "restaurant",
          "cuisine": "pizza",
          "name": "Union Pizza"
        },
        "geometry": {
          "type": "Point",
          "coordinates": [
            -87.6803825,
            42.0408917
          ]
        },
        "id": "node/2393339052"
      },
      {
        "type": "Feature",
        "properties": {
          "@id": "node/2412419374",
          "addr:city": "Evanston",
          "addr:housenumber": "816",
          "addr:postcode": "60201",
          "addr:state": "IL",
          "addr:street": "Church Street",
          "amenity": "fast_food",
          "cuisine": "chicken",
          "name": "10Q Chicken"
        },
        "geometry": {
          "type": "Point",
          "coordinates": [
            -87.6827912,
            42.0483105
          ]
        },
        "id": "node/2412419374"
      },
      {
        "type": "Feature",
        "properties": {
          "@id": "node/2567875558",
          "addr:city": "Evanston",
          "addr:housenumber": "1603",
          "addr:postcode": "60201",
          "addr:state": "IL",
          "addr:street": "Orrington Avenue",
          "amenity": "restaurant",
          "name": "LYFE Kitchen"
        },
        "geometry": {
          "type": "Point",
          "coordinates": [
            -87.6806632,
            42.0468048
          ]
        },
        "id": "node/2567875558"
      },
      {
        "type": "Feature",
        "properties": {
          "@id": "node/2805145931",
          "amenity": "parking_entrance",
          "name": "South Campus Parking Garage"
        },
        "geometry": {
          "type": "Point",
          "coordinates": [
            -87.6734559,
            42.0507586
          ]
        },
        "id": "node/2805145931"
      },
      {
        "type": "Feature",
        "properties": {
          "@id": "node/2973141424",
          "amenity": "cafe",
          "cuisine": "coffee_shop",
          "name": "Community Blend",
          "source": "http://www.urbancincy.com/2014/07/community-blend-brings-cooperative-coffee-shop-to-evanstons-revitalizing-neighborhood-business-district/"
        },
        "geometry": {
          "type": "Point",
          "coordinates": [
            -84.4698602,
            39.1438456
          ]
        },
        "id": "node/2973141424"
      },
      {
        "type": "Feature",
        "properties": {
          "@id": "node/3050655684",
          "addr:city": "Cincinnati",
          "addr:housenumber": "2030",
          "addr:postcode": "45208",
          "addr:state": "OH",
          "addr:street": "Madison Road",
          "amenity": "cafe",
          "cuisine": "american;pastry",
          "name": "BonBonerie Cafe",
          "opening_hours": "Mo-Sa 07:30-17:30",
          "phone": "+1-513-321-3399",
          "website": "https://www.bonbonerie.com/cafe/"
        },
        "geometry": {
          "type": "Point",
          "coordinates": [
            -84.4616097,
            39.1323703
          ]
        },
        "id": "node/3050655684"
      },
      {
        "type": "Feature",
        "properties": {
          "@id": "node/3407564895",
          "addr:city": "Evanston",
          "addr:housenumber": "1565",
          "addr:postcode": "60201",
          "addr:state": "IL",
          "addr:street": "Sherman Avenue",
          "amenity": "restaurant",
          "cuisine": "asian",
          "delivery": "yes",
          "name": "Zoba Noodle Bar",
          "phone": "+1 847 328 9622",
          "takeaway": "yes",
          "website": "http://www.zobathenoodlebar.com/"
        },
        "geometry": {
          "type": "Point",
          "coordinates": [
            -87.6815938,
            42.0460238
          ]
        },
        "id": "node/3407564895"
      },
      {
        "type": "Feature",
        "properties": {
          "@id": "node/3443948978",
          "addr:city": "Evanston",
          "addr:housenumber": "911",
          "addr:postcode": "60201",
          "addr:state": "IL",
          "addr:street": "Foster Street",
          "amenity": "fast_food",
          "brand": "Domino's",
          "brand:wikidata": "Q839466",
          "brand:wikipedia": "en:Domino's Pizza",
          "cuisine": "pizza",
          "name": "Domino's",
          "short_name": "Domino's",
          "takeaway": "yes"
        },
        "geometry": {
          "type": "Point",
          "coordinates": [
            -87.6840119,
            42.0540569
          ]
        },
        "id": "node/3443948978"
      },
      {
        "type": "Feature",
        "properties": {
          "@id": "node/3622728950",
          "addr:city": "Evanston",
          "addr:housenumber": "1603",
          "addr:postcode": "60201",
          "addr:state": "IL",
          "addr:street": "Orrington Avenue",
          "amenity": "bank",
          "atm": "yes",
          "brand": "Chase",
          "brand:wikidata": "Q524629",
          "brand:wikipedia": "en:Chase Bank",
          "drive_through": "no",
          "name": "Chase",
          "website": "https://locator.chase.com/il/evanston/1603-orrington-ave"
        },
        "geometry": {
          "type": "Point",
          "coordinates": [
            -87.6805067,
            42.0470523
          ]
        },
        "id": "node/3622728950"
      },
      {
        "type": "Feature",
        "properties": {
          "@id": "node/3636045892",
          "addr:city": "Evanston",
          "addr:housenumber": "810",
          "addr:postcode": "60201",
          "addr:state": "IL",
          "addr:street": "Grove",
          "amenity": "bar",
          "name": "Bangers and Lace",
          "phone": "+1-847-905-0854",
          "website": "https://www.bangersandlacebar.com"
        },
        "geometry": {
          "type": "Point",
          "coordinates": [
            -87.6824266,
            42.0453847
          ]
        },
        "id": "node/3636045892"
      },
      {
        "type": "Feature",
        "properties": {
          "@id": "node/3940418101",
          "amenity": "atm",
          "brand": "U.S. Bank",
          "brand:wikidata": "Q739084",
          "brand:wikipedia": "en:U.S. Bancorp",
          "check_date": "2021-05-12",
          "drive_through": "no",
          "name": "U.S. Bank",
          "operator": "U.S. Bank",
          "operator:wikidata": "Q739084",
          "operator:wikipedia": "en:U.S. Bancorp"
        },
        "geometry": {
          "type": "Point",
          "coordinates": [
            -87.6785383,
            42.0510983
          ]
        },
        "id": "node/3940418101"
      },
      {
        "type": "Feature",
        "properties": {
          "@id": "node/4083541766",
          "addr:city": "Evanston",
          "addr:housenumber": "632",
          "addr:postcode": "82930",
          "addr:state": "WY",
          "addr:street": "Twin Ridge Avenue",
          "amenity": "place_of_worship",
          "denomination": "mormon",
          "name": "The Church of Jesus Christ of Latter-day Saints",
          "religion": "christian"
        },
        "geometry": {
          "type": "Point",
          "coordinates": [
            -110.9743582,
            41.2518452
          ]
        },
        "id": "node/4083541766"
      },
      {
        "type": "Feature",
        "properties": {
          "@id": "node/4083541767",
          "addr:city": "Evanston",
          "addr:housenumber": "632",
          "addr:postcode": "82930",
          "addr:state": "WY",
          "addr:street": "Twin Ridge Avenue",
          "amenity": "place_of_worship",
          "denomination": "mormon",
          "description": "Seminary and Institute building",
          "name": "The Church of Jesus Christ of Latter-day Saints",
          "religion": "christian"
        },
        "geometry": {
          "type": "Point",
          "coordinates": [
            -110.9740054,
            41.2527479
          ]
        },
        "id": "node/4083541767"
      },
      {
        "type": "Feature",
        "properties": {
          "@id": "node/4083541768",
          "addr:city": "Evanston",
          "addr:housenumber": "475",
          "addr:postcode": "82930",
          "addr:state": "WY",
          "addr:street": "Yellow Creek Road",
          "amenity": "nursing_home",
          "name": "Rocky Mountain Care Facility",
          "phone": "+1 307 288 5253",
          "website": "http://www.rmcare.com/evanston-wy/"
        },
        "geometry": {
          "type": "Point",
          "coordinates": [
            -110.9807523,
            41.2431902
          ]
        },
        "id": "node/4083541768"
      },
      {
        "type": "Feature",
        "properties": {
          "@id": "node/4083541769",
          "addr:city": "Evanston",
          "addr:housenumber": "475",
          "addr:postcode": "82930",
          "addr:state": "WY",
          "addr:street": "Yellow Creek Road",
          "amenity": "place_of_worship",
          "denomination": "mormon",
          "description": "Needles Branch",
          "name": "The Church of Jesus Christ of Latter-day Saints",
          "religion": "christian"
        },
        "geometry": {
          "type": "Point",
          "coordinates": [
            -110.9809691,
            41.2429516
          ]
        },
        "id": "node/4083541769"
      },
      {
        "type": "Feature",
        "properties": {
          "@id": "node/4083541770",
          "addr:city": "Evanston",
          "addr:housenumber": "185",
          "addr:postcode": "82930",
          "addr:state": "WY",
          "addr:street": "Overthrust Road",
          "amenity": "dentist",
          "name": "Arrowhead Dental",
          "opening_hours": "07:00-19:00"
        },
        "geometry": {
          "type": "Point",
          "coordinates": [
            -110.9868768,
            41.2426972
          ]
        },
        "id": "node/4083541770"
      },
      {
        "type": "Feature",
        "properties": {
          "@id": "node/4480973504",
          "addr:city": "Evanston",
          "addr:housenumber": "1900",
          "addr:postcode": "60202",
          "addr:state": "IL",
          "addr:street": "Dempster Street",
          "alt_name": "Dunkin' Donuts",
          "amenity": "fast_food",
          "brand": "Dunkin'",
          "brand:wikidata": "Q847743",
          "brand:wikipedia": "en:Dunkin' Donuts",
          "cuisine": "donut;coffee_shop",
          "name": "Dunkin'",
          "takeaway": "yes"
        },
        "geometry": {
          "type": "Point",
          "coordinates": [
            -87.699708,
            42.0406543
          ]
        },
        "id": "node/4480973504"
      },
      {
        "type": "Feature",
        "properties": {
          "@id": "node/4601528057",
          "addr:city": "Evanston",
          "addr:housenumber": "700",
          "addr:postcode": "60202",
          "addr:state": "IL",
          "addr:street": "Main Street",
          "amenity": "cafe",
          "cuisine": "coffee_shop",
          "description": "Walk up coffee window (food truck style) serving breakfast tacos, churros and espresso.",
          "internet_access": "no",
          "name": "Cafecito",
          "opening_hours": "Mo-Fr 06:15-10:00"
        },
        "geometry": {
          "type": "Point",
          "coordinates": [
            -87.6805519,
            42.0337907
          ]
        },
        "id": "node/4601528057"
      },
      {
        "type": "Feature",
        "properties": {
          "@id": "node/4632020494",
          "amenity": "restaurant",
          "name": "University Plaza Cafe",
          "name:en": "University Plaza Cafe"
        },
        "geometry": {
          "type": "Point",
          "coordinates": [
            -87.6816473,
            42.0442863
          ]
        },
        "id": "node/4632020494"
      },
      {
        "type": "Feature",
        "properties": {
          "@id": "node/4707059180",
          "addr:city": "Evanston",
          "addr:housenumber": "1026",
          "addr:postcode": "60201",
          "addr:state": "IL",
          "addr:street": "Davis Street",
          "amenity": "school",
          "name": "Beacon Academy Arts Annex"
        },
        "geometry": {
          "type": "Point",
          "coordinates": [
            -87.6864372,
            42.0469
          ]
        },
        "id": "node/4707059180"
      },
      {
        "type": "Feature",
        "properties": {
          "@id": "node/4707059181",
          "addr:city": "Evanston",
          "addr:housenumber": "1026",
          "addr:postcode": "60201",
          "addr:state": "IL",
          "addr:street": "Davis Street",
          "amenity": "restaurant",
          "cuisine": "mexican",
          "name": "Taco Diablo",
          "phone": "+1-847-869-4343"
        },
        "geometry": {
          "type": "Point",
          "coordinates": [
            -87.6863379,
            42.046902
          ]
        },
        "id": "node/4707059181"
      },
      {
        "type": "Feature",
        "properties": {
          "@id": "node/4707059182",
          "addr:city": "Evanston",
          "addr:housenumber": "1026",
          "addr:postcode": "60201",
          "addr:state": "IL",
          "addr:street": "Davis Street",
          "amenity": "restaurant",
          "cuisine": "asian",
          "name": "LuLu's",
          "phone": "+1-847-869-4343"
        },
        "geometry": {
          "type": "Point",
          "coordinates": [
            -87.6862441,
            42.046908
          ]
        },
        "id": "node/4707059182"
      },
      {
        "type": "Feature",
        "properties": {
          "@id": "node/4838642016",
          "addr:city": "Evanston",
          "addr:housenumber": "1902",
          "addr:postcode": "60201",
          "addr:state": "IL",
          "addr:street": "Green Bay Road",
          "amenity": "restaurant",
          "cuisine": "barbecue",
          "name": "Hecky's Barbecue",
          "website": "https://www.heckys.com/"
        },
        "geometry": {
          "type": "Point",
          "coordinates": [
            -87.6892059,
            42.0523857
          ]
        },
        "id": "node/4838642016"
      },
      {
        "type": "Feature",
        "properties": {
          "@id": "node/4846512378",
          "amenity": "bicycle_rental",
          "bicycle_rental": "docking_station",
          "brand": "Divvy",
          "brand:wikidata": "Q16973938",
          "brand:wikipedia": "en:Divvy",
          "capacity": "15",
          "divvy:id": "605",
          "fee": "yes",
          "name": "University Library (NU)",
          "network": "Divvy",
          "network:wikidata": "Q16973938",
          "network:wikipedia": "en:Divvy",
          "opening_hours": "24/7",
          "operator": "Lyft",
          "operator:type": "private",
          "operator:wikidata": "Q17077936",
          "operator:wikipedia": "en:Motivate (company)",
          "payment:app": "yes",
          "payment:credit_cards": "yes"
        },
        "geometry": {
          "type": "Point",
          "coordinates": [
            -87.6734197,
            42.0529892
          ]
        },
        "id": "node/4846512378"
      },
      {
        "type": "Feature",
        "properties": {
          "@id": "node/4846512379",
          "amenity": "bicycle_rental",
          "brand": "Divvy",
          "brand:wikidata": "Q16973938",
          "brand:wikipedia": "en:Divvy",
          "capacity": "15",
          "divvy:id": "604",
          "fee": "yes",
          "name": "Sheridan Rd & Noyes St (NU)",
          "network": "Divvy",
          "network:wikidata": "Q16973938",
          "network:wikipedia": "en:Divvy",
          "opening_hours": "24/7",
          "operator": "Lyft",
          "operator:type": "private",
          "operator:wikidata": "Q17077936",
          "operator:wikipedia": "en:Motivate (company)",
          "payment:app": "yes",
          "payment:credit_cards": "yes"
        },
        "geometry": {
          "type": "Point",
          "coordinates": [
            -87.6775114,
            42.0582259
          ]
        },
        "id": "node/4846512379"
      },
      {
        "type": "Feature",
        "properties": {
          "@id": "node/4846512380",
          "amenity": "bicycle_rental",
          "brand": "Divvy",
          "brand:wikidata": "Q16973938",
          "brand:wikipedia": "en:Divvy",
          "capacity": "15",
          "divvy:id": "603",
          "fee": "yes",
          "name": "Chicago Ave & Sheridan Rd",
          "network": "Divvy",
          "network:wikidata": "Q16973938",
          "network:wikipedia": "en:Divvy",
          "opening_hours": "24/7",
          "operator": "Lyft",
          "operator:type": "private",
          "operator:wikidata": "Q17077936",
          "operator:wikipedia": "en:Motivate (company)",
          "payment:app": "yes",
          "payment:credit_cards": "yes"
        },
        "geometry": {
          "type": "Point",
          "coordinates": [
            -87.6778346,
            42.0504826
          ]
        },
        "id": "node/4846512380"
      },
      {
        "type": "Feature",
        "properties": {
          "@id": "node/4846512381",
          "amenity": "bicycle_rental",
          "brand": "Divvy",
          "brand:wikidata": "Q16973938",
          "brand:wikipedia": "en:Divvy",
          "capacity": "15",
          "divvy:id": "602",
          "fee": "yes",
          "name": "Central St & Girard Ave",
          "network": "Divvy",
          "network:wikidata": "Q16973938",
          "network:wikipedia": "en:Divvy",
          "opening_hours": "24/7",
          "operator": "Lyft",
          "operator:type": "private",
          "operator:wikidata": "Q17077936",
          "operator:wikipedia": "en:Motivate (company)",
          "payment:app": "yes",
          "payment:credit_cards": "yes"
        },
        "geometry": {
          "type": "Point",
          "coordinates": [
            -87.6861307,
            42.0643065
          ]
        },
        "id": "node/4846512381"
      },
      {
        "type": "Feature",
        "properties": {
          "@id": "node/4846512383",
          "amenity": "bicycle_rental",
          "brand": "Divvy",
          "brand:wikidata": "Q16973938",
          "brand:wikipedia": "en:Divvy",
          "capacity": "15",
          "divvy:id": "600",
          "fee": "yes",
          "name": "Dodge Ave & Church St",
          "network": "Divvy",
          "network:wikidata": "Q16973938",
          "network:wikipedia": "en:Divvy",
          "opening_hours": "24/7",
          "operator": "Lyft",
          "operator:type": "private",
          "operator:wikidata": "Q17077936",
          "operator:wikipedia": "en:Motivate (company)",
          "payment:app": "yes",
          "payment:credit_cards": "yes"
        },
        "geometry": {
          "type": "Point",
          "coordinates": [
            -87.69843,
            42.0483156
          ]
        },
        "id": "node/4846512383"
      },
      {
        "type": "Feature",
        "properties": {
          "@id": "node/4846512384",
          "amenity": "bicycle_rental",
          "brand": "Divvy",
          "brand:wikidata": "Q16973938",
          "brand:wikipedia": "en:Divvy",
          "capacity": "15",
          "divvy:id": "599",
          "fee": "yes",
          "name": "Valli Produce - Evanston Plaza",
          "network": "Divvy",
          "network:wikidata": "Q16973938",
          "network:wikipedia": "en:Divvy",
          "opening_hours": "24/7",
          "operator": "Lyft",
          "operator:type": "private",
          "operator:wikidata": "Q17077936",
          "operator:wikipedia": "en:Motivate (company)",
          "payment:app": "yes",
          "payment:credit_cards": "yes"
        },
        "geometry": {
          "type": "Point",
          "coordinates": [
            -87.6994127,
            42.0396964
          ]
        },
        "id": "node/4846512384"
      },
      {
        "type": "Feature",
        "properties": {
          "@id": "node/4846512385",
          "amenity": "bicycle_rental",
          "bicycle_rental": "docking_station",
          "brand": "Divvy",
          "brand:wikidata": "Q16973938",
          "brand:wikipedia": "en:Divvy",
          "capacity": "15",
          "divvy:id": "598",
          "fee": "yes",
          "name": "Elmwood Ave & Austin St",
          "network": "Divvy",
          "network:wikidata": "Q16973938",
          "network:wikipedia": "en:Divvy",
          "opening_hours": "24/7",
          "operator": "Lyft",
          "operator:type": "private",
          "operator:wikidata": "Q17077936",
          "operator:wikipedia": "en:Motivate (company)",
          "payment:app": "yes",
          "payment:credit_cards": "yes"
        },
        "geometry": {
          "type": "Point",
          "coordinates": [
            -87.6841002,
            42.0257779
          ]
        },
        "id": "node/4846512385"
      },
      {
        "type": "Feature",
        "properties": {
          "@id": "node/4846512386",
          "amenity": "bicycle_rental",
          "brand": "Divvy",
          "brand:wikidata": "Q16973938",
          "brand:wikipedia": "en:Divvy",
          "capacity": "15",
          "divvy:id": "597",
          "fee": "yes",
          "name": "Chicago Ave & Washington St",
          "network": "Divvy",
          "network:wikidata": "Q16973938",
          "network:wikipedia": "en:Divvy",
          "opening_hours": "24/7",
          "operator": "Lyft",
          "operator:type": "private",
          "operator:wikidata": "Q17077936",
          "operator:wikipedia": "en:Motivate (company)",
          "payment:app": "yes",
          "payment:credit_cards": "yes"
        },
        "geometry": {
          "type": "Point",
          "coordinates": [
            -87.6792508,
            42.0325958
          ]
        },
        "id": "node/4846512386"
      },
      {
        "type": "Feature",
        "properties": {
          "@id": "node/4846512387",
          "amenity": "bicycle_rental",
          "brand": "Divvy",
          "brand:wikidata": "Q16973938",
          "brand:wikipedia": "en:Divvy",
          "capacity": "15",
          "divvy:id": "596",
          "fee": "yes",
          "name": "Benson Ave & Church St",
          "network": "Divvy",
          "network:wikidata": "Q16973938",
          "network:wikipedia": "en:Divvy",
          "opening_hours": "24/7",
          "operator": "Lyft",
          "operator:type": "private",
          "operator:wikidata": "Q17077936",
          "operator:wikipedia": "en:Motivate (company)",
          "payment:app": "yes",
          "payment:credit_cards": "yes"
        },
        "geometry": {
          "type": "Point",
          "coordinates": [
            -87.6835343,
            42.0482748
          ]
        },
        "id": "node/4846512387"
      },
      {
        "type": "Feature",
        "properties": {
          "@id": "node/5315912939",
          "addr:city": "Cincinnati",
          "addr:housenumber": "2135",
          "addr:postcode": "45207",
          "addr:state": "OH",
          "addr:street": "Dana Avenue",
          "addr:unit": "310",
          "amenity": "doctors",
          "healthcare": "doctor",
          "healthcare:speciality": "ophthalmology",
          "name": "Tri-State Centers for Sight, Inc. - Hyde Park",
          "opening_hours": "Mo,We-Fr 08:00-17:00; Tu,Sa 08:00-12:00",
          "phone": "+1-513-221-7788",
          "website": "https://www.tristatesight.com/"
        },
        "geometry": {
          "type": "Point",
          "coordinates": [
            -84.4599286,
            39.1454214
          ]
        },
        "id": "node/5315912939"
      },
      {
        "type": "Feature",
        "properties": {
          "@id": "node/5358062801",
          "addr:city": "Cincinnati",
          "addr:housenumber": "3701",
          "addr:postcode": "45207",
          "addr:state": "OH",
          "addr:street": "Montgomery Road",
          "amenity": "restaurant",
          "cuisine": "pizza",
          "name": "DELICIO Coal Fired Pizza",
          "opening_hours": "Mo-Th 11:00-22:00; Fr-Sa 11:00-23:00; Su 12:00-21:30",
          "phone": "+1-513-429-5855",
          "website": "https://www.deliciocoalfiredpizza.com/"
        },
        "geometry": {
          "type": "Point",
          "coordinates": [
            -84.4678426,
            39.1467085
          ]
        },
        "id": "node/5358062801"
      },
      {
        "type": "Feature",
        "properties": {
          "@id": "node/5416055430",
          "amenity": "fuel",
          "brand": "United Dairy Farmers",
          "brand:wikidata": "Q7887677",
          "name": "UDF Fuel",
          "operator": "UDF",
          "self_service": "yes",
          "short_name": "UDF"
        },
        "geometry": {
          "type": "Point",
          "coordinates": [
            -84.4685046,
            39.1459337
          ]
        },
        "id": "node/5416055430"
      },
      {
        "type": "Feature",
        "properties": {
          "@id": "node/5416055437",
          "amenity": "ice_cream",
          "brand": "United Dairy Farmers",
          "brand:wikidata": "Q7887677",
          "name": "United Dairy Farmers",
          "shop": "convenience",
          "short_name": "UDF"
        },
        "geometry": {
          "type": "Point",
          "coordinates": [
            -84.4688908,
            39.1458942
          ]
        },
        "id": "node/5416055437"
      },
      {
        "type": "Feature",
        "properties": {
          "@id": "node/5449258824",
          "addr:city": "Cincinnati",
          "addr:housenumber": "3217",
          "addr:postcode": "45208",
          "addr:state": "OH",
          "addr:street": "Madison Road",
          "amenity": "restaurant",
          "cuisine": "american;pub",
          "name": "O’Bryon’s Bar & Grill",
          "opening_hours": "Su-Th 11:00-24:00; Fr-Sa 11:00-02:00",
          "phone": "+1-513-321-5525",
          "website": "https://www.obryonsbarandgrill.com/"
        },
        "geometry": {
          "type": "Point",
          "coordinates": [
            -84.4631399,
            39.1321432
          ]
        },
        "id": "node/5449258824"
      },
      {
        "type": "Feature",
        "properties": {
          "@id": "node/5954422376",
          "addr:city": "Evanston",
          "addr:housenumber": "106",
          "addr:postcode": "82930",
          "addr:street": "North 3rd Street",
          "amenity": "fast_food",
          "brand": "Taco Time",
          "brand:wikidata": "Q7673969",
          "brand:wikipedia": "en:TacoTime",
          "cuisine": "mexican",
          "name": "Taco Time",
          "opening_hours": "Mo-Fr 09:00-20:00; Sa 10:00-20:00",
          "phone": "+1 307 789 0555",
          "takeaway": "yes",
          "website": "http://www.tacotime.com/stores/6550"
        },
        "geometry": {
          "type": "Point",
          "coordinates": [
            -110.957475,
            41.2642097
          ]
        },
        "id": "node/5954422376"
      },
      {
        "type": "Feature",
        "properties": {
          "@id": "node/6003901906",
          "addr:city": "Evanston",
          "addr:housenumber": "629",
          "addr:postcode": "60202",
          "addr:state": "IL",
          "addr:street": "Howard Street",
          "amenity": "bar",
          "description": "cocktail bar",
          "name": "Ward Eight",
          "opening_hours": "Su 17:00-23:00; Mo-Th 17:00-00:00; Fr,Sa 17:00-02:00",
          "website": "https://www.wardeight.com/"
        },
        "geometry": {
          "type": "Point",
          "coordinates": [
            -87.6796843,
            42.0196015
          ]
        },
        "id": "node/6003901906"
      },
      {
        "type": "Feature",
        "properties": {
          "@id": "node/6088982879",
          "amenity": "fuel",
          "brand": "Shell",
          "brand:wikidata": "Q110716465",
          "brand:wikipedia": "en:Royal Dutch Shell",
          "name": "Shell"
        },
        "geometry": {
          "type": "Point",
          "coordinates": [
            -110.98125,
            41.264607
          ]
        },
        "id": "node/6088982879"
      },
      {
        "type": "Feature",
        "properties": {
          "@id": "node/6088982938",
          "amenity": "restaurant",
          "name": "JB's Restaurant"
        },
        "geometry": {
          "type": "Point",
          "coordinates": [
            -110.9821071,
            41.2635276
          ]
        },
        "id": "node/6088982938"
      },
      {
        "type": "Feature",
        "properties": {
          "@id": "node/6275626564",
          "addr:city": "Evanston",
          "addr:housenumber": "2658",
          "addr:postcode": "60201",
          "addr:state": "IL",
          "addr:street": "Green Bay Road",
          "alt_name": "Dunkin' Donuts",
          "amenity": "fast_food",
          "brand": "Dunkin'",
          "brand:wikidata": "Q847743",
          "brand:wikipedia": "en:Dunkin' Donuts",
          "cuisine": "donut;coffee_shop",
          "name": "Dunkin'",
          "takeaway": "yes"
        },
        "geometry": {
          "type": "Point",
          "coordinates": [
            -87.7004379,
            42.0659975
          ]
        },
        "id": "node/6275626564"
      },
      {
        "type": "Feature",
        "properties": {
          "@id": "node/6275626565",
          "addr:city": "Evanston",
          "addr:housenumber": "2658",
          "addr:postcode": "60201",
          "addr:state": "IL",
          "addr:street": "Green Bay Road",
          "amenity": "ice_cream",
          "brand": "Baskin-Robbins",
          "brand:wikidata": "Q584601",
          "brand:wikipedia": "en:Baskin-Robbins",
          "cuisine": "ice_cream",
          "name": "Baskin-Robbins"
        },
        "geometry": {
          "type": "Point",
          "coordinates": [
            -87.700531,
            42.066004
          ]
        },
        "id": "node/6275626565"
      },
      {
        "type": "Feature",
        "properties": {
          "@id": "node/6412830796",
          "addr:city": "Evanston",
          "addr:housenumber": "1625",
          "addr:postcode": "60201",
          "addr:state": "IL",
          "addr:street": "Hinman Avenue",
          "amenity": "restaurant",
          "cuisine": "american",
          "name": "Hearth Restaurant",
          "phone": "+1-847-570-8400"
        },
        "geometry": {
          "type": "Point",
          "coordinates": [
            -87.6772776,
            42.0465107
          ]
        },
        "id": "node/6412830796"
      },
      {
        "type": "Feature",
        "properties": {
          "@id": "node/6412834355",
          "addr:city": "Evanston",
          "addr:housenumber": "815",
          "addr:postcode": "60202",
          "addr:state": "IL",
          "addr:street": "Chicago Avenue",
          "amenity": "restaurant",
          "cuisine": "italian",
          "name": "Campagnola",
          "phone": "+1-847-475-6100"
        },
        "geometry": {
          "type": "Point",
          "coordinates": [
            -87.678946,
            42.0327095
          ]
        },
        "id": "node/6412834355"
      },
      {
        "type": "Feature",
        "properties": {
          "@id": "node/6412842874",
          "addr:city": "Evanston",
          "addr:housenumber": "1700",
          "addr:postcode": "60201",
          "addr:state": "IL",
          "addr:street": "Central Street",
          "amenity": "restaurant",
          "cuisine": "american",
          "name": "Ten Mile House",
          "phone": "+1-847-905-0669"
        },
        "geometry": {
          "type": "Point",
          "coordinates": [
            -87.6959394,
            42.0641644
          ]
        },
        "id": "node/6412842874"
      },
      {
        "type": "Feature",
        "properties": {
          "@id": "node/6412843463",
          "addr:city": "Evanston",
          "addr:housenumber": "625",
          "addr:postcode": "60201",
          "addr:state": "IL",
          "addr:street": "Davis Street",
          "amenity": "restaurant",
          "cuisine": "american",
          "name": "Next of Kin Restaurant & Cafe",
          "phone": "+1-847-563-8242"
        },
        "geometry": {
          "type": "Point",
          "coordinates": [
            -87.6807943,
            42.0467897
          ]
        },
        "id": "node/6412843463"
      },
      {
        "type": "Feature",
        "properties": {
          "@id": "node/6412845261",
          "addr:city": "Evanston",
          "addr:housenumber": "1635",
          "addr:postcode": "60201",
          "addr:state": "IL",
          "addr:street": "Chicago Avenue",
          "amenity": "restaurant",
          "cuisine": "american",
          "name": "Prairie Moon",
          "phone": "+1-847-864-8328"
        },
        "geometry": {
          "type": "Point",
          "coordinates": [
            -87.6788551,
            42.0473246
          ]
        },
        "id": "node/6412845261"
      },
      {
        "type": "Feature",
        "properties": {
          "@id": "node/6687897240",
          "amenity": "bicycle_rental",
          "brand": "Divvy",
          "brand:wikidata": "Q16973938",
          "brand:wikipedia": "en:Divvy",
          "fee": "yes",
          "name": "Chicago Ave & Dempster St",
          "network": "Divvy",
          "network:wikidata": "Q16973938",
          "network:wikipedia": "en:Divvy",
          "opening_hours": "24/7",
          "operator": "Lyft",
          "operator:type": "private",
          "operator:wikidata": "Q17077936",
          "operator:wikipedia": "en:Motivate (company)",
          "payment:cash": "yes",
          "payment:credit_cards": "yes",
          "website": "divvybikes.com"
        },
        "geometry": {
          "type": "Point",
          "coordinates": [
            -87.680673,
            42.0416496
          ]
        },
        "id": "node/6687897240"
      },
      {
        "type": "Feature",
        "properties": {
          "@id": "node/6775066860",
          "amenity": "bicycle_rental",
          "brand": "Divvy",
          "brand:wikidata": "Q16973938",
          "brand:wikipedia": "en:Divvy",
          "fee": "yes",
          "name": "Evanston Civic Center",
          "network": "Divvy",
          "network:wikidata": "Q16973938",
          "network:wikipedia": "en:Divvy",
          "opening_hours": "24/7",
          "operator": "Lyft",
          "operator:type": "private",
          "operator:wikidata": "Q17077936",
          "operator:wikipedia": "en:Motivate (company)",
          "payment:app": "yes",
          "payment:credit_cards": "yes"
        },
        "geometry": {
          "type": "Point",
          "coordinates": [
            -87.6865818,
            42.0570331
          ]
        },
        "id": "node/6775066860"
      },
      {
        "type": "Feature",
        "properties": {
          "@id": "node/6775087158",
          "amenity": "bicycle_rental",
          "brand": "Divvy",
          "brand:wikidata": "Q16973938",
          "brand:wikipedia": "en:Divvy",
          "fee": "yes",
          "name": "Dodge Ave & Mulford St",
          "network": "Divvy",
          "network:wikidata": "Q16973938",
          "network:wikipedia": "en:Divvy",
          "opening_hours": "24/7",
          "operator": "Lyft",
          "operator:type": "private",
          "operator:wikidata": "Q17077936",
          "operator:wikipedia": "en:Motivate (company)",
          "payment:app": "yes",
          "payment:credit_cards": "yes"
        },
        "geometry": {
          "type": "Point",
          "coordinates": [
            -87.699685,
            42.0234261
          ]
        },
        "id": "node/6775087158"
      },
      {
        "type": "Feature",
        "properties": {
          "@id": "node/6789434143",
          "amenity": "charging_station",
          "brand": "Tesla Supercharger",
          "brand:wikidata": "Q17089620",
          "brand:wikipedia": "en:Tesla Supercharger",
          "capacity": "8",
          "name": "Tesla Supercharger",
          "operator": "Tesla, Inc.",
          "operator:wikidata": "Q478214",
          "operator:wikipedia": "en:Tesla, Inc.",
          "short_name": "Tesla"
        },
        "geometry": {
          "type": "Point",
          "coordinates": [
            -110.98551,
            41.2629884
          ]
        },
        "id": "node/6789434143"
      },
      {
        "type": "Feature",
        "properties": {
          "@id": "node/7082640862",
          "addr:city": "Evanston",
          "addr:housenumber": "1827",
          "addr:postcode": "60201",
          "addr:state": "IL",
          "addr:street": "Emerson Street",
          "amenity": "restaurant",
          "cuisine": "jamaican",
          "name": "Claire's Korner",
          "opening_hours": "Tu-Sa 10:00-21:00"
        },
        "geometry": {
          "type": "Point",
          "coordinates": [
            -87.6986565,
            42.0522065
          ]
        },
        "id": "node/7082640862"
      },
      {
        "type": "Feature",
        "properties": {
          "@id": "node/7132270226",
          "addr:city": "Evanston",
          "addr:housenumber": "3330",
          "addr:postcode": "60201",
          "addr:state": "IL",
          "addr:street": "Central Street",
          "amenity": "cafe",
          "brand": "Starbucks",
          "brand:wikidata": "Q37158",
          "brand:wikipedia": "en:Starbucks",
          "cuisine": "coffee_shop",
          "name": "Starbucks",
          "official_name": "Starbucks Coffee",
          "takeaway": "yes",
          "website": "https://www.starbucks.com/store-locator/store/16171/crawford-central-evanston-3330-central-st-evanston-il-602011108-us"
        },
        "geometry": {
          "type": "Point",
          "coordinates": [
            -87.7268318,
            42.0642711
          ]
        },
        "id": "node/7132270226"
      },
      {
        "type": "Feature",
        "properties": {
          "@id": "node/7313805184",
          "addr:city": "Evanston",
          "addr:housenumber": "40",
          "addr:postcode": "60208",
          "addr:state": "IL",
          "addr:street": "Arts Circle Drive",
          "amenity": "cinema",
          "name": "Block Cinema",
          "website": "https://www.blockmuseum.northwestern.edu/cinema/",
          "wikidata": "Q88106325"
        },
        "geometry": {
          "type": "Point",
          "coordinates": [
            -87.6728657,
            42.0523227
          ]
        },
        "id": "node/7313805184"
      },
      {
        "type": "Feature",
        "properties": {
          "@id": "node/7429229961",
          "addr:city": "Evanston",
          "addr:housenumber": "3131",
          "addr:postcode": "60201",
          "addr:state": "IL",
          "addr:street": "Simpson Street",
          "amenity": "social_facility",
          "name": "The Highlands of Evanston",
          "social_facility": "group_home",
          "social_facility:for": "senior"
        },
        "geometry": {
          "type": "Point",
          "coordinates": [
            -87.7234436,
            42.057665
          ]
        },
        "id": "node/7429229961"
      },
      {
        "type": "Feature",
        "properties": {
          "@id": "node/7975708968",
          "amenity": "bicycle_rental",
          "brand": "Divvy",
          "brand:wikidata": "Q16973938",
          "brand:wikipedia": "en:Divvy",
          "capacity": "15",
          "divvy:id": "663",
          "fee": "yes",
          "name": "Lincolnwood Dr & Central St",
          "network": "Divvy",
          "network:wikidata": "Q16973938",
          "network:wikipedia": "en:Divvy",
          "opening_hours": "24/7",
          "operator": "Lyft",
          "operator:type": "private",
          "operator:wikidata": "Q17077936",
          "operator:wikipedia": "en:Motivate (company)",
          "payment:app": "yes",
          "payment:credit_cards": "yes"
        },
        "geometry": {
          "type": "Point",
          "coordinates": [
            -87.7153095,
            42.064774
          ]
        },
        "id": "node/7975708968"
      },
      {
        "type": "Feature",
        "properties": {
          "@id": "node/7975712653",
          "amenity": "bicycle_rental",
          "brand": "Divvy",
          "brand:wikidata": "Q16973938",
          "brand:wikipedia": "en:Divvy",
          "capacity": "15",
          "divvy:id": "601",
          "fee": "yes",
          "name": "Central St Metra",
          "network": "Divvy",
          "network:wikidata": "Q16973938",
          "network:wikipedia": "en:Divvy",
          "opening_hours": "24/7",
          "operator": "Lyft",
          "operator:type": "private",
          "operator:wikidata": "Q17077936",
          "operator:wikipedia": "en:Motivate (company)",
          "payment:app": "yes",
          "payment:credit_cards": "yes"
        },
        "geometry": {
          "type": "Point",
          "coordinates": [
            -87.6986432,
            42.0638275
          ]
        },
        "id": "node/7975712653"
      },
      {
        "type": "Feature",
        "properties": {
          "@id": "node/8041722095",
          "addr:city": "Evanston",
          "addr:housenumber": "1612",
          "addr:postcode": "60201",
          "addr:state": "IL",
          "addr:street": "Benson Avenue",
          "alt_name": "Dunkin' Donuts",
          "amenity": "fast_food",
          "brand": "Dunkin'",
          "brand:wikidata": "Q847743",
          "brand:wikipedia": "en:Dunkin' Donuts",
          "cuisine": "donut;coffee_shop",
          "drive_through": "no",
          "name": "Dunkin'",
          "takeaway": "yes"
        },
        "geometry": {
          "type": "Point",
          "coordinates": [
            -87.6835397,
            42.0479058
          ]
        },
        "id": "node/8041722095"
      },
      {
        "type": "Feature",
        "properties": {
          "@id": "node/8069975040",
          "addr:housenumber": "3341",
          "addr:street": "Montgomery Road",
          "alt_name": "D.O.K.O.",
          "amenity": "place_of_worship",
          "level": "0",
          "name": "Mohammed Temple #3",
          "religion": "muslim"
        },
        "geometry": {
          "type": "Point",
          "coordinates": [
            -84.4745763,
            39.1391108
          ]
        },
        "id": "node/8069975040"
      },
      {
        "type": "Feature",
        "properties": {
          "@id": "node/8201469300",
          "addr:city": "Evanston",
          "addr:housenumber": "1801",
          "addr:postcode": "60202",
          "addr:state": "IL",
          "addr:street": "Main Street",
          "amenity": "library",
          "name": "Robert Crown Branch Library",
          "operator": "Evanston Public Library",
          "operator:type": "public",
          "website": "https://www.epl.org/essentials/library-info/locations-hours/",
          "wikidata": "Q69473543"
        },
        "geometry": {
          "type": "Point",
          "coordinates": [
            -87.698335,
            42.0344045
          ]
        },
        "id": "node/8201469300"
      },
      {
        "type": "Feature",
        "properties": {
          "@id": "node/8330033216",
          "addr:city": "Evanston",
          "addr:housenumber": "1810",
          "addr:postcode": "60201",
          "addr:state": "IL",
          "addr:street": "Maple Avenue",
          "amenity": "car_rental",
          "brand": "Enterprise",
          "brand:wikidata": "Q17085454",
          "brand:wikipedia": "en:Enterprise Rent-A-Car",
          "name": "Enterprise",
          "official_name": "Enterprise Rent-A-Car"
        },
        "geometry": {
          "type": "Point",
          "coordinates": [
            -87.6850133,
            42.0502008
          ]
        },
        "id": "node/8330033216"
      },
      {
        "type": "Feature",
        "properties": {
          "@id": "node/8410869115",
          "amenity": "atm",
          "brand": "U.S. Bank",
          "brand:wikidata": "Q739084",
          "brand:wikipedia": "en:U.S. Bancorp",
          "drive_through": "yes",
          "name": "U.S. Bank",
          "operator": "U.S. Bank",
          "operator:wikidata": "Q739084",
          "operator:wikipedia": "en:U.S. Bancorp"
        },
        "geometry": {
          "type": "Point",
          "coordinates": [
            -87.6922032,
            42.0196685
          ]
        },
        "id": "node/8410869115"
      },
      {
        "type": "Feature",
        "properties": {
          "@id": "node/8421002141",
          "amenity": "bicycle_rental",
          "brand": "Divvy",
          "brand:wikidata": "Q16973938",
          "brand:wikipedia": "en:Divvy",
          "capacity": "15",
          "fee": "yes",
          "name": "Dodge Ave & Main St",
          "network": "Divvy",
          "network:wikidata": "Q16973938",
          "network:wikipedia": "en:Divvy",
          "opening_hours": "24/7",
          "operator": "Lyft",
          "operator:type": "private",
          "operator:wikidata": "Q17077936",
          "operator:wikipedia": "en:Motivate (company)",
          "payment:app": "yes",
          "payment:credit_cards": "yes"
        },
        "geometry": {
          "type": "Point",
          "coordinates": [
            -87.6991848,
            42.0343548
          ]
        },
        "id": "node/8421002141"
      },
      {
        "type": "Feature",
        "properties": {
          "@id": "node/8726300444",
          "addr:city": "Evanston",
          "addr:housenumber": "1865",
          "addr:postcode": "60201",
          "addr:state": "IL",
          "addr:street": "Sherman Avenue",
          "amenity": "fast_food",
          "cuisine": "burger;quesadilla;milkshake",
          "drive_through": "no",
          "name": "Fran's Cafe"
        },
        "geometry": {
          "type": "Point",
          "coordinates": [
            -87.6810996,
            42.0517582
          ]
        },
        "id": "node/8726300444"
      },
      {
        "type": "Feature",
        "properties": {
          "@id": "node/9246688117",
          "addr:housenumber": "812",
          "amenity": "cafe",
          "name": "Cupitol Coffee and Eatery"
        },
        "geometry": {
          "type": "Point",
          "coordinates": [
            -87.6825521,
            42.0454106
          ]
        },
        "id": "node/9246688117"
      },
      {
        "type": "Feature",
        "properties": {
          "@id": "node/9278938940",
          "amenity": "cafe",
          "name": "Cafe Coralie",
          "website": "https://www.bestfrenchpastries.com/"
        },
        "geometry": {
          "type": "Point",
          "coordinates": [
            -87.673396,
            42.0572204
          ]
        },
        "id": "node/9278938940"
      },
      {
        "type": "Feature",
        "properties": {
          "@id": "node/9418350196",
          "addr:city": "Evanston",
          "addr:housenumber": "633",
          "addr:postcode": "60208",
          "addr:state": "IL",
          "addr:street": "Emerson Street",
          "amenity": "clinic",
          "brand": "Northwestern Medicine",
          "brand:wikidata": "Q50036890",
          "healthcare": "clinic",
          "name": "Northwestern Student Health Service",
          "operator": "Northwestern Medicine",
          "operator:type": "university"
        },
        "geometry": {
          "type": "Point",
          "coordinates": [
            -87.6787207,
            42.0523502
          ]
        },
        "id": "node/9418350196"
      },
      {
        "type": "Feature",
        "properties": {
          "@id": "node/9554963017",
          "addr:housenumber": "824",
          "addr:street": "Emerson Street",
          "amenity": "bank",
          "name": "Byline Bank"
        },
        "geometry": {
          "type": "Point",
          "coordinates": [
            -87.6830831,
            42.0518174
          ]
        },
        "id": "node/9554963017"
      },
      {
        "type": "Feature",
        "properties": {
          "@id": "node/9892498971",
          "addr:city": "Evanston",
          "addr:housenumber": "2485",
          "addr:postcode": "60202",
          "addr:state": "IL",
          "addr:street": "Howard Street",
          "amenity": "bank",
          "atm": "yes",
          "brand": "Huntington Bank",
          "brand:wikidata": "Q798819",
          "drive_through": "no",
          "name": "Huntington Bank"
        },
        "geometry": {
          "type": "Point",
          "coordinates": [
            -87.707574,
            42.0208272
          ]
        },
        "id": "node/9892498971"
      },
      {
        "type": "Feature",
        "properties": {
          "@id": "node/9983262666",
          "amenity": "cafe",
          "brand": "Kung Fu Tea",
          "brand:wikidata": "Q66023886",
          "cuisine": "bubble_tea",
          "description": "bubble tea",
          "name": "Kung Fu Tea",
          "shop": "tea",
          "takeaway": "yes"
        },
        "geometry": {
          "type": "Point",
          "coordinates": [
            -87.6813591,
            42.0498224
          ]
        },
        "id": "node/9983262666"
      },
      {
        "type": "Feature",
        "properties": {
          "@id": "node/10179492932",
          "addr:city": "Evanston",
          "addr:housenumber": "1901",
          "addr:postcode": "60202",
          "addr:state": "IL",
          "addr:street": "Howard Street",
          "amenity": "social_facility",
          "branch": "Evanston",
          "brand": "VA",
          "brand:wikidata": "Q6580225",
          "healthcare": "counselling",
          "healthcare:counselling": "psychiatry",
          "healthcare:for": "veterans",
          "name": "Vet Center",
          "operator": "VA",
          "operator:type": "government",
          "social_facility": "healthcare;outreach",
          "social_facility:for": "veterans"
        },
        "geometry": {
          "type": "Point",
          "coordinates": [
            -87.6997972,
            42.0194682
          ]
        },
        "id": "node/10179492932"
      },
      {
        "type": "Feature",
        "properties": {
          "@id": "node/10285735123",
          "access": "university",
          "addr:city": "Evanston",
          "addr:housenumber": "2033",
          "addr:postcode": "60208",
          "addr:state": "IL",
          "addr:street": "Sheridan Road",
          "amenity": "library",
          "name": "Math Library",
          "operator": "Northwestern University Libraries",
          "operator:type": "university"
        },
        "geometry": {
          "type": "Point",
          "coordinates": [
            -87.6764323,
            42.0549002
          ]
        },
        "id": "node/10285735123"
      },
      {
        "type": "Feature",
        "properties": {
          "@id": "node/10285735124",
          "addr:city": "Evanston",
          "addr:housenumber": "40",
          "addr:postcode": "60208",
          "addr:state": "IL",
          "addr:street": "Arts Circle Drive",
          "amenity": "arts_centre",
          "name": "The Block Museum of Art",
          "website": "https://www.blockmuseum.northwestern.edu/",
          "wikidata": "Q1906417",
          "wikipedia": "en:Mary and Leigh Block Museum of Art"
        },
        "geometry": {
          "type": "Point",
          "coordinates": [
            -87.6727148,
            42.0522319
          ]
        },
        "id": "node/10285735124"
      },
      {
        "type": "Feature",
        "properties": {
          "@id": "node/10634843905",
          "amenity": "bar",
          "name": "Dana’s Gardens"
        },
        "geometry": {
          "type": "Point",
          "coordinates": [
            -84.466318,
            39.1463104
          ]
        },
        "id": "node/10634843905"
      }
    ]
  }